{"type": "FeatureCollection", "features": [{"type": "Feature", "properties": {"area_ha": 20.945, "dist_km": 2.999, "node": "Dunkerque", "node_mw": 3585, "osm_id": 41728786, "anchor_kind": "demand"}, "geometry": {"type": "Polygon", "coordinates": [[[2.35418, 51.0522], [2.35421, 51.05181], [2.35421, 51.0517], [2.35437, 51.04965], [2.35438, 51.04958], [2.35438, 51.04947], [2.35438, 51.04945], [2.35437, 51.04945], [2.35436, 51.04944], [2.35434, 51.04944], [2.35379, 51.04941], [2.35252, 51.04955], [2.35259, 51.04994], [2.35167, 51.05037], [2.35159, 51.0504], [2.35151, 51.05043], [2.35142, 51.05045], [2.34021, 51.05314], [2.34017, 51.05322], [2.33839, 51.05363], [2.33834, 51.05365], [2.33829, 51.05366], [2.33827, 51.05368], [2.33824, 51.05371], [2.33822, 51.05373], [2.33821, 51.05376], [2.33803, 51.05441], [2.33802, 51.05443], [2.33802, 51.05445], [2.33803, 51.05446], [2.33805, 51.05447], [2.33809, 51.05448], [2.33823, 51.05449], [2.33835, 51.05451], [2.33848, 51.05452], [2.33864, 51.05454], [2.33877, 51.05455], [2.33891, 51.05457], [2.34118, 51.05482], [2.34308, 51.05503], [2.34317, 51.05504], [2.34325, 51.05505], [2.34352, 51.05507], [2.34359, 51.05508], [2.34368, 51.05509], [2.34384, 51.05511], [2.34387, 51.05511], [2.34389, 51.0551], [2.34391, 51.05509], [2.34395, 51.05498], [2.34417, 51.05419], [2.3445, 51.053], [2.34575, 51.05272], [2.3458, 51.05283], [2.34691, 51.05258], [2.347, 51.05276], [2.34766, 51.05262], [2.34757, 51.05244], [2.34812, 51.05232], [2.34825, 51.05254], [2.34829, 51.05254], [2.34834, 51.05253], [2.34837, 51.05251], [2.34827, 51.05228], [2.34864, 51.0522], [2.3488, 51.0522], [2.34881, 51.05207], [2.34967, 51.05212], [2.35039, 51.05214], [2.3528, 51.05222], [2.35349, 51.05223], [2.35352, 51.0523], [2.35354, 51.05233], [2.35357, 51.05233], [2.3537, 51.05234], [2.3537, 51.05233], [2.35387, 51.05233], [2.35387, 51.05234], [2.35396, 51.05235], [2.35396, 51.05236], [2.35414, 51.05236], [2.35418, 51.05229], [2.35419, 51.05224], [2.35417, 51.05224], [2.35418, 51.0522]]]}}, {"type": "Feature", "properties": {"area_ha": 1.379, "dist_km": 0.983, "node": "Loire Estuaire", "node_mw": 900, "osm_id": 71428939, "anchor_kind": "demand"}, "geometry": {"type": "Polygon", "coordinates": [[[-2.01319, 47.28102], [-2.01325, 47.28097], [-2.01331, 47.281], [-2.01337, 47.28095], [-2.01345, 47.28087], [-2.0134, 47.28084], [-2.01354, 47.28073], [-2.01359, 47.28076], [-2.01364, 47.28071], [-2.01359, 47.28069], [-2.0139, 47.28042], [-2.01376, 47.28035], [-2.01381, 47.28031], [-2.01364, 47.28022], [-2.01349, 47.28034], [-2.01341, 47.28029], [-2.01349, 47.28021], [-2.01343, 47.28018], [-2.01346, 47.28015], [-2.01329, 47.28005], [-2.01312, 47.28021], [-2.01305, 47.28018], [-2.01296, 47.28025], [-2.01303, 47.28029], [-2.01283, 47.28045], [-2.0128, 47.28048], [-2.01169, 47.28142], [-2.01158, 47.28151], [-2.01182, 47.28164], [-2.01184, 47.28163], [-2.01188, 47.28165], [-2.01189, 47.28164], [-2.01199, 47.2817], [-2.01206, 47.28174], [-2.01236, 47.2819], [-2.01242, 47.28185], [-2.01252, 47.28191], [-2.01268, 47.28178], [-2.01258, 47.28172], [-2.01264, 47.28166], [-2.01285, 47.28149], [-2.01288, 47.28146], [-2.01294, 47.2815], [-2.01321, 47.28127], [-2.01315, 47.28123], [-2.01293, 47.28142], [-2.01285, 47.28138], [-2.01279, 47.28135], [-2.01298, 47.2812], [-2.0131, 47.2811], [-2.01319, 47.28102]]]}}, {"type": "Feature", "properties": {"area_ha": 0.005, "dist_km": 1.008, "node": "Loire Estuaire", "node_mw": 900, "osm_id": 71429799, "anchor_kind": "demand"}, "geometry": {"type": "Polygon", "coordinates": [[[-2.01334, 47.27895], [-2.01328, 47.27891], [-2.01321, 47.27895], [-2.01327, 47.27899], [-2.01334, 47.27895]]]}}, {"type": "Feature", "properties": {"area_ha": 0.081, "dist_km": 2.655, "node": "Dunkerque", "node_mw": 3585, "osm_id": 76391711, "anchor_kind": "demand"}, "geometry": {"type": "Polygon", "coordinates": [[[2.34769, 51.01069], [2.34777, 51.01042], [2.34814, 51.01046], [2.34806, 51.01073], [2.34769, 51.01069]]]}}, {"type": "Feature", "properties": {"area_ha": 0.182, "dist_km": 2.908, "node": "Dunkerque", "node_mw": 3585, "osm_id": 76392697, "anchor_kind": "demand"}, "geometry": {"type": "Polygon", "coordinates": [[[2.3491, 51.0072], [2.34889, 51.00718], [2.34893, 51.00704], [2.34935, 51.00709], [2.34908, 51.00802], [2.34886, 51.00799], [2.3491, 51.0072]]]}}, {"type": "Feature", "properties": {"area_ha": 0.105, "dist_km": 2.858, "node": "Dunkerque", "node_mw": 3585, "osm_id": 76396636, "anchor_kind": "demand"}, "geometry": {"type": "Polygon", "coordinates": [[[2.35027, 51.00722], [2.35054, 51.00727], [2.35033, 51.00774], [2.35006, 51.00769], [2.35027, 51.00722]]]}}, {"type": "Feature", "properties": {"area_ha": 0.144, "dist_km": 1.628, "node": "Dunkerque", "node_mw": 3585, "osm_id": 76397779, "anchor_kind": "demand"}, "geometry": {"type": "Polygon", "coordinates": [[[2.37818, 51.04367], [2.37867, 51.04361], [2.37871, 51.04376], [2.37753, 51.04391], [2.37748, 51.04376], [2.37799, 51.04369], [2.37818, 51.04367]]]}}, {"type": "Feature", "properties": {"area_ha": 0.014, "dist_km": 2.024, "node": "Dunkerque", "node_mw": 3585, "osm_id": 76398021, "anchor_kind": "demand"}, "geometry": {"type": "Polygon", "coordinates": [[[2.37109, 51.04823], [2.37107, 51.04815], [2.37128, 51.04814], [2.3713, 51.04822], [2.37109, 51.04823]]]}}, {"type": "Feature", "properties": {"area_ha": 0.092, "dist_km": 2.945, "node": "Dunkerque", "node_mw": 3585, "osm_id": 76399839, "anchor_kind": "demand"}, "geometry": {"type": "Polygon", "coordinates": [[[2.34827, 51.0071], [2.34869, 51.00714], [2.34861, 51.00742], [2.34819, 51.00737], [2.34827, 51.0071]]]}}, {"type": "Feature", "properties": {"area_ha": 0.46, "dist_km": 2.882, "node": "Dunkerque", "node_mw": 3585, "osm_id": 76401916, "anchor_kind": "demand"}, "geometry": {"type": "Polygon", "coordinates": [[[2.34293, 51.01113], [2.34305, 51.01114], [2.34303, 51.01121], [2.34281, 51.01119], [2.34281, 51.0112], [2.34281, 51.01121], [2.34279, 51.01121], [2.34278, 51.01121], [2.34276, 51.0112], [2.34273, 51.01118], [2.34227, 51.01113], [2.34229, 51.01106], [2.34227, 51.01105], [2.34233, 51.01081], [2.34236, 51.01081], [2.34238, 51.01075], [2.34235, 51.01074], [2.34238, 51.01064], [2.34262, 51.01067], [2.34262, 51.01066], [2.34272, 51.01067], [2.34272, 51.01065], [2.3428, 51.01066], [2.34284, 51.01053], [2.34265, 51.01051], [2.34273, 51.01024], [2.34271, 51.01024], [2.34271, 51.01022], [2.3427, 51.01021], [2.34269, 51.01022], [2.34269, 51.01023], [2.34268, 51.01023], [2.34266, 51.01024], [2.34264, 51.01024], [2.34263, 51.01023], [2.34263, 51.01021], [2.34264, 51.0102], [2.34264, 51.0102], [2.34266, 51.01019], [2.34268, 51.01018], [2.3427, 51.01018], [2.34271, 51.01018], [2.34271, 51.01019], [2.34272, 51.01019], [2.34274, 51.01013], [2.34276, 51.01013], [2.34277, 51.01007], [2.34322, 51.01012], [2.34315, 51.01035], [2.34317, 51.01035], [2.34318, 51.01035], [2.34319, 51.01036], [2.34319, 51.01037], [2.34318, 51.01038], [2.34316, 51.01039], [2.34314, 51.0104], [2.34307, 51.01066], [2.34306, 51.01068], [2.34293, 51.01113]]]}}, {"type": "Feature", "properties": {"area_ha": 0.14, "dist_km": 1.862, "node": "Dunkerque", "node_mw": 3585, "osm_id": 76403065, "anchor_kind": "demand"}, "geometry": {"type": "Polygon", "coordinates": [[[2.36736, 51.04696], [2.36707, 51.04695], [2.36712, 51.04634], [2.36742, 51.04635], [2.36736, 51.04696]]]}}, {"type": "Feature", "properties": {"area_ha": 0.893, "dist_km": 2.781, "node": "Dunkerque", "node_mw": 3585, "osm_id": 76404530, "anchor_kind": "demand"}, "geometry": {"type": "Polygon", "coordinates": [[[2.34904, 51.00862], [2.34922, 51.00822], [2.34954, 51.00828], [2.34957, 51.00822], [2.34967, 51.00823], [2.34964, 51.0083], [2.35006, 51.00837], [2.34989, 51.00877], [2.34967, 51.00901], [2.34884, 51.00955], [2.34822, 51.00917], [2.34904, 51.00862]]]}}, {"type": "Feature", "properties": {"area_ha": 0.043, "dist_km": 3.015, "node": "Dunkerque", "node_mw": 3585, "osm_id": 76405787, "anchor_kind": "demand"}, "geometry": {"type": "Polygon", "coordinates": [[[2.34393, 51.0082], [2.34407, 51.00821], [2.34396, 51.0086], [2.34382, 51.00858], [2.34393, 51.0082]]]}}, {"type": "Feature", "properties": {"area_ha": 0.061, "dist_km": 2.04, "node": "Dunkerque", "node_mw": 3585, "osm_id": 76405796, "anchor_kind": "demand"}, "geometry": {"type": "Polygon", "coordinates": [[[2.37357, 51.04838], [2.37351, 51.04811], [2.37361, 51.0481], [2.37362, 51.04816], [2.37385, 51.04814], [2.37385, 51.04814], [2.37389, 51.04836], [2.37357, 51.04838]]]}}, {"type": "Feature", "properties": {"area_ha": 0.013, "dist_km": 2.027, "node": "Dunkerque", "node_mw": 3585, "osm_id": 76407006, "anchor_kind": "demand"}, "geometry": {"type": "Polygon", "coordinates": [[[2.37054, 51.04828], [2.37052, 51.04819], [2.37072, 51.04818], [2.37073, 51.04826], [2.37054, 51.04828]]]}}, {"type": "Feature", "properties": {"area_ha": 0.02, "dist_km": 2.055, "node": "Dunkerque", "node_mw": 3585, "osm_id": 76409393, "anchor_kind": "demand"}, "geometry": {"type": "Polygon", "coordinates": [[[2.37091, 51.04842], [2.37093, 51.0485], [2.37056, 51.04852], [2.37055, 51.04845], [2.37091, 51.04842]]]}}, {"type": "Feature", "properties": {"area_ha": 0.47, "dist_km": 1.346, "node": "Dunkerque", "node_mw": 3585, "osm_id": 76411443, "anchor_kind": "demand"}, "geometry": {"type": "Polygon", "coordinates": [[[2.35284, 51.02372], [2.35288, 51.02373], [2.35336, 51.02376], [2.35334, 51.02383], [2.35366, 51.02385], [2.35366, 51.02384], [2.35435, 51.0239], [2.35435, 51.02392], [2.35435, 51.02392], [2.35432, 51.02406], [2.35374, 51.02401], [2.35373, 51.02406], [2.35363, 51.02405], [2.3536, 51.0242], [2.35356, 51.02439], [2.35317, 51.02436], [2.35316, 51.02441], [2.35302, 51.02439], [2.35303, 51.02435], [2.35276, 51.02432], [2.35282, 51.02403], [2.35277, 51.02403], [2.35278, 51.02399], [2.35282, 51.02399], [2.35282, 51.02399], [2.35278, 51.02398], [2.35279, 51.02392], [2.35284, 51.02393], [2.35286, 51.02379], [2.35281, 51.02378], [2.35282, 51.02372], [2.35284, 51.02372]]]}}, {"type": "Feature", "properties": {"area_ha": 0.093, "dist_km": 3.0, "node": "Dunkerque", "node_mw": 3585, "osm_id": 76414156, "anchor_kind": "demand"}, "geometry": {"type": "Polygon", "coordinates": [[[2.34742, 51.00679], [2.34767, 51.00682], [2.34753, 51.00728], [2.34728, 51.00725], [2.34742, 51.00679]]]}}, {"type": "Feature", "properties": {"area_ha": 0.053, "dist_km": 2.882, "node": "Dunkerque", "node_mw": 3585, "osm_id": 76422587, "anchor_kind": "demand"}, "geometry": {"type": "Polygon", "coordinates": [[[2.34965, 51.00728], [2.34986, 51.0073], [2.34977, 51.00761], [2.34956, 51.00759], [2.34965, 51.00728]]]}}, {"type": "Feature", "properties": {"area_ha": 0.19, "dist_km": 2.985, "node": "Dunkerque", "node_mw": 3585, "osm_id": 76423940, "anchor_kind": "demand"}, "geometry": {"type": "Polygon", "coordinates": [[[2.34432, 51.0081], [2.34474, 51.00815], [2.34458, 51.00868], [2.34443, 51.00866], [2.34441, 51.00872], [2.34415, 51.00869], [2.34432, 51.0081]]]}}, {"type": "Feature", "properties": {"area_ha": 0.014, "dist_km": 2.025, "node": "Dunkerque", "node_mw": 3585, "osm_id": 76426012, "anchor_kind": "demand"}, "geometry": {"type": "Polygon", "coordinates": [[[2.3708, 51.04826], [2.37079, 51.04817], [2.371, 51.04816], [2.37102, 51.04824], [2.3708, 51.04826]]]}}, {"type": "Feature", "properties": {"area_ha": 0.152, "dist_km": 1.302, "node": "Dunkerque", "node_mw": 3585, "osm_id": 76426913, "anchor_kind": "demand"}, "geometry": {"type": "Polygon", "coordinates": [[[2.3534, 51.02467], [2.35338, 51.02482], [2.35337, 51.02487], [2.35336, 51.02493], [2.35336, 51.02494], [2.35335, 51.02494], [2.35276, 51.02481], [2.35278, 51.02465], [2.35332, 51.02468], [2.35333, 51.02458], [2.35335, 51.02444], [2.35343, 51.02445], [2.35343, 51.02448], [2.35359, 51.02449], [2.35359, 51.02448], [2.35392, 51.02449], [2.35391, 51.02459], [2.35372, 51.02458], [2.35371, 51.02463], [2.35363, 51.02462], [2.35363, 51.02458], [2.35358, 51.02457], [2.35358, 51.02458], [2.35341, 51.02457], [2.35341, 51.02462], [2.3534, 51.02467]]]}}, {"type": "Feature", "properties": {"area_ha": 3.656, "dist_km": 2.447, "node": "Dunkerque", "node_mw": 3585, "osm_id": 76428672, "anchor_kind": "demand"}, "geometry": {"type": "Polygon", "coordinates": [[[2.35433, 51.00899], [2.3566, 51.00885], [2.35695, 51.01115], [2.3546, 51.01079], [2.35433, 51.00899]]]}}, {"type": "Feature", "properties": {"area_ha": 0.026, "dist_km": 2.052, "node": "Dunkerque", "node_mw": 3585, "osm_id": 76428770, "anchor_kind": "demand"}, "geometry": {"type": "Polygon", "coordinates": [[[2.37093, 51.0485], [2.37091, 51.04842], [2.37138, 51.04839], [2.3714, 51.04846], [2.37093, 51.0485]]]}}, {"type": "Feature", "properties": {"area_ha": 0.075, "dist_km": 1.842, "node": "Dunkerque", "node_mw": 3585, "osm_id": 76431453, "anchor_kind": "demand"}, "geometry": {"type": "Polygon", "coordinates": [[[2.36779, 51.04664], [2.36745, 51.04664], [2.36747, 51.04635], [2.36781, 51.04636], [2.36779, 51.04664]]]}}, {"type": "Feature", "properties": {"area_ha": 0.105, "dist_km": 2.963, "node": "Dunkerque", "node_mw": 3585, "osm_id": 76432929, "anchor_kind": "demand"}, "geometry": {"type": "Polygon", "coordinates": [[[2.3448, 51.00831], [2.34515, 51.00836], [2.34503, 51.00873], [2.34469, 51.00869], [2.3448, 51.00831]]]}}, {"type": "Feature", "properties": {"area_ha": 2.121, "dist_km": 2.407, "node": "Dunkerque", "node_mw": 3585, "osm_id": 76435173, "anchor_kind": "demand"}, "geometry": {"type": "Polygon", "coordinates": [[[2.3636, 51.05026], [2.36365, 51.0503], [2.36337, 51.05046], [2.36344, 51.05051], [2.36338, 51.05055], [2.36338, 51.05055], [2.36317, 51.05067], [2.36323, 51.05071], [2.36293, 51.05097], [2.36282, 51.05104], [2.36284, 51.05106], [2.36261, 51.05119], [2.36258, 51.05117], [2.36183, 51.0516], [2.36187, 51.05163], [2.3617, 51.05168], [2.36145, 51.05172], [2.36134, 51.05165], [2.36117, 51.05175], [2.36117, 51.05174], [2.36116, 51.05174], [2.36114, 51.05174], [2.36114, 51.05175], [2.36062, 51.05175], [2.3605, 51.05166], [2.36038, 51.05174], [2.36033, 51.0517], [2.36043, 51.05164], [2.36043, 51.05164], [2.36044, 51.05164], [2.36029, 51.05153], [2.36073, 51.05128], [2.36074, 51.05129], [2.36079, 51.05126], [2.36076, 51.05124], [2.36144, 51.05087], [2.36209, 51.05049], [2.36273, 51.05013], [2.36368, 51.04958], [2.36386, 51.0497], [2.36405, 51.04983], [2.3637, 51.05003], [2.36384, 51.05012], [2.3636, 51.05026]]]}}, {"type": "Feature", "properties": {"area_ha": 0.117, "dist_km": 2.036, "node": "Dunkerque", "node_mw": 3585, "osm_id": 76436600, "anchor_kind": "demand"}, "geometry": {"type": "Polygon", "coordinates": [[[2.37055, 51.04845], [2.37051, 51.04828], [2.37054, 51.04828], [2.37073, 51.04826], [2.3708, 51.04826], [2.37102, 51.04824], [2.37109, 51.04823], [2.3713, 51.04822], [2.37136, 51.04821], [2.37139, 51.04839], [2.37138, 51.04839], [2.37091, 51.04842], [2.37055, 51.04845]]]}}, {"type": "Feature", "properties": {"area_ha": 0.046, "dist_km": 2.291, "node": "Dunkerque", "node_mw": 3585, "osm_id": 245618914, "anchor_kind": "demand"}, "geometry": {"type": "Polygon", "coordinates": [[[2.3892, 51.04672], [2.38912, 51.04681], [2.38924, 51.04685], [2.38924, 51.04684], [2.3892, 51.04682], [2.38922, 51.0468], [2.38922, 51.04679], [2.38923, 51.04678], [2.38923, 51.04678], [2.38924, 51.04678], [2.38926, 51.04677], [2.38929, 51.04678], [2.3893, 51.04677], [2.38928, 51.04676], [2.38929, 51.04675], [2.3893, 51.04674], [2.38932, 51.04675], [2.38936, 51.04669], [2.38942, 51.04661], [2.38945, 51.04657], [2.38949, 51.04658], [2.38952, 51.04659], [2.3896, 51.04647], [2.3896, 51.04647], [2.38948, 51.04643], [2.38948, 51.04644], [2.38945, 51.04648], [2.38942, 51.04647], [2.38933, 51.04645], [2.38933, 51.04645], [2.38924, 51.04642], [2.38922, 51.04646], [2.38915, 51.04656], [2.38921, 51.04658], [2.38929, 51.04647], [2.38942, 51.04651], [2.38924, 51.04674], [2.3892, 51.04672]]]}}, {"type": "Feature", "properties": {"area_ha": 0.029, "dist_km": 2.203, "node": "Dunkerque", "node_mw": 3585, "osm_id": 249614175, "anchor_kind": "demand"}, "geometry": {"type": "Polygon", "coordinates": [[[2.3927, 51.04368], [2.39278, 51.04355], [2.3928, 51.04353], [2.39303, 51.04358], [2.39298, 51.04366], [2.39285, 51.04364], [2.39281, 51.04364], [2.39279, 51.04365], [2.39279, 51.04366], [2.39277, 51.0437], [2.39276, 51.0437], [2.39273, 51.04374], [2.39274, 51.04374], [2.39272, 51.04377], [2.39272, 51.04377], [2.39269, 51.04382], [2.39262, 51.0438], [2.39267, 51.04373], [2.3927, 51.04368]]]}}, {"type": "Feature", "properties": {"area_ha": 0.06, "dist_km": 2.523, "node": "Dunkerque", "node_mw": 3585, "osm_id": 253931581, "anchor_kind": "demand"}, "geometry": {"type": "Polygon", "coordinates": [[[2.39699, 51.04527], [2.39676, 51.04521], [2.39671, 51.0452], [2.39674, 51.04515], [2.39676, 51.04512], [2.39677, 51.0451], [2.39679, 51.04507], [2.3968, 51.04505], [2.39682, 51.04502], [2.39685, 51.04497], [2.39692, 51.04499], [2.39706, 51.04503], [2.39703, 51.04508], [2.39699, 51.04513], [2.39713, 51.04517], [2.39724, 51.04519], [2.39707, 51.04525], [2.39699, 51.04527]]]}}, {"type": "Feature", "properties": {"area_ha": 0.397, "dist_km": 2.779, "node": "Dunkerque", "node_mw": 3585, "osm_id": 258622944, "anchor_kind": "demand"}, "geometry": {"type": "Polygon", "coordinates": [[[2.40177, 51.04437], [2.4017, 51.04448], [2.40178, 51.0445], [2.40179, 51.04453], [2.40177, 51.04456], [2.4018, 51.04457], [2.40178, 51.04461], [2.40179, 51.04461], [2.40178, 51.04464], [2.40176, 51.04463], [2.40172, 51.04469], [2.40171, 51.04471], [2.40192, 51.04476], [2.40239, 51.04488], [2.40309, 51.04506], [2.4031, 51.04504], [2.40313, 51.04499], [2.40322, 51.04486], [2.40323, 51.04483], [2.40329, 51.04475], [2.40274, 51.04461], [2.40235, 51.04452], [2.40214, 51.04446], [2.40212, 51.04446], [2.40209, 51.04445], [2.40197, 51.04442], [2.40186, 51.04439], [2.40177, 51.04437]]]}}, {"type": "Feature", "properties": {"area_ha": 164.254, "dist_km": 1.557, "node": "Dunkerque", "node_mw": 3585, "osm_id": 262446729, "anchor_kind": "demand"}, "geometry": {"type": "Polygon", "coordinates": [[[2.36276, 51.04464], [2.36293, 51.04467], [2.3643, 51.04435], [2.36432, 51.04434], [2.36434, 51.04433], [2.36435, 51.04432], [2.36435, 51.04431], [2.36436, 51.04429], [2.36435, 51.04428], [2.36434, 51.04426], [2.36229, 51.04186], [2.36088, 51.04024], [2.36201, 51.03986], [2.36555, 51.04401], [2.36559, 51.04404], [2.36562, 51.04404], [2.36565, 51.04405], [2.36568, 51.04404], [2.36627, 51.04391], [2.36756, 51.04361], [2.36766, 51.04334], [2.36769, 51.04325], [2.36773, 51.04314], [2.36652, 51.04174], [2.36434, 51.03918], [2.36367, 51.0384], [2.36347, 51.03816], [2.36367, 51.03766], [2.36395, 51.03757], [2.36358, 51.03716], [2.36355, 51.03716], [2.36351, 51.03716], [2.36299, 51.03654], [2.36297, 51.03652], [2.36295, 51.0365], [2.36291, 51.03648], [2.36288, 51.03647], [2.36285, 51.03647], [2.36281, 51.03647], [2.36278, 51.03647], [2.36272, 51.03649], [2.36262, 51.03632], [2.36244, 51.03604], [2.36218, 51.03573], [2.36179, 51.03554], [2.36005, 51.0352], [2.35927, 51.03508], [2.35831, 51.03493], [2.3583, 51.03463], [2.35683, 51.03425], [2.35557, 51.0343], [2.35346, 51.0344], [2.35096, 51.03451], [2.35045, 51.03453], [2.34992, 51.03459], [2.34931, 51.03476], [2.34842, 51.03482], [2.3481, 51.03558], [2.34476, 51.03518], [2.34433, 51.03639], [2.34385, 51.0377], [2.34251, 51.0376], [2.34049, 51.03735], [2.34052, 51.03876], [2.34055, 51.03884], [2.33753, 51.03904], [2.33668, 51.0391], [2.33674, 51.03944], [2.33748, 51.03974], [2.33815, 51.04001], [2.33971, 51.04028], [2.34292, 51.04065], [2.34296, 51.04096], [2.3431, 51.04209], [2.34331, 51.04217], [2.34689, 51.04423], [2.35062, 51.04637], [2.35077, 51.04643], [2.35097, 51.04645], [2.35119, 51.04646], [2.35199, 51.04638], [2.35298, 51.04627], [2.35662, 51.04592], [2.35668, 51.0459], [2.35673, 51.04589], [2.35677, 51.04586], [2.3568, 51.04583], [2.35681, 51.04579], [2.35682, 51.04576], [2.35681, 51.04572], [2.3568, 51.04569], [2.35293, 51.04251], [2.35429, 51.04187], [2.35837, 51.04524], [2.35841, 51.04526], [2.35844, 51.04528], [2.35848, 51.04529], [2.35853, 51.0453], [2.35858, 51.0453], [2.35864, 51.0453], [2.36023, 51.04515], [2.36047, 51.04535], [2.36048, 51.04536], [2.36049, 51.04536], [2.3605, 51.04536], [2.36052, 51.04537], [2.36053, 51.04537], [2.36054, 51.04537], [2.36057, 51.04537], [2.36151, 51.04527], [2.36153, 51.04526], [2.36154, 51.04524], [2.36154, 51.04522], [2.36154, 51.04519], [2.36152, 51.04516], [2.36151, 51.04514], [2.36147, 51.04512], [2.36138, 51.04507], [2.36131, 51.04503], [2.36125, 51.04498], [2.36121, 51.04493], [2.36118, 51.04487], [2.36124, 51.04484], [2.35684, 51.04123], [2.35796, 51.04069], [2.36276, 51.04464]]]}}, {"type": "Feature", "properties": {"area_ha": 33.308, "dist_km": 2.396, "node": "Dunkerque", "node_mw": 3585, "osm_id": 294629558, "anchor_kind": "demand"}, "geometry": {"type": "Polygon", "coordinates": [[[2.37359, 51.00898], [2.37322, 51.00928], [2.37165, 51.01037], [2.37105, 51.01019], [2.37058, 51.01062], [2.36986, 51.01124], [2.3743, 51.01117], [2.37432, 51.01172], [2.37289, 51.01191], [2.36867, 51.0119], [2.36864, 51.01136], [2.36832, 51.01114], [2.3679, 51.01097], [2.36631, 51.01031], [2.36522, 51.00987], [2.36451, 51.00957], [2.36526, 51.00822], [2.36589, 51.0073], [2.36631, 51.00735], [2.36697, 51.00759], [2.36744, 51.00723], [2.36803, 51.00621], [2.36903, 51.00462], [2.37019, 51.00492], [2.37065, 51.00507], [2.37122, 51.00532], [2.37101, 51.00562], [2.37333, 51.00622], [2.37375, 51.00621], [2.37436, 51.0059], [2.37491, 51.00635], [2.37407, 51.00757], [2.37411, 51.00768], [2.3741, 51.00787], [2.37388, 51.0082], [2.37387, 51.00849], [2.37359, 51.00898]]]}}, {"type": "Feature", "properties": {"area_ha": 6.989, "dist_km": 1.754, "node": "Dunkerque", "node_mw": 3585, "osm_id": 308427200, "anchor_kind": "demand"}, "geometry": {"type": "Polygon", "coordinates": [[[2.37161, 51.01539], [2.37091, 51.01541], [2.37081, 51.01472], [2.37065, 51.01468], [2.37016, 51.01472], [2.37015, 51.01462], [2.36977, 51.01455], [2.36974, 51.01422], [2.37051, 51.01418], [2.3703, 51.0138], [2.37027, 51.01356], [2.37038, 51.01355], [2.37015, 51.01299], [2.37063, 51.01301], [2.37126, 51.01303], [2.37205, 51.01312], [2.37413, 51.01322], [2.37447, 51.01353], [2.37435, 51.01359], [2.37424, 51.01419], [2.37404, 51.01423], [2.3741, 51.01434], [2.374, 51.01435], [2.37398, 51.01503], [2.37396, 51.01507], [2.37385, 51.01535], [2.37369, 51.01555], [2.37357, 51.01579], [2.37161, 51.01539]]]}}, {"type": "Feature", "properties": {"area_ha": 1.985, "dist_km": 0.599, "node": "Loire Estuaire", "node_mw": 900, "osm_id": 485287636, "anchor_kind": "demand"}, "geometry": {"type": "Polygon", "coordinates": [[[-2.00795, 47.2827], [-2.00845, 47.28182], [-2.00608, 47.28122], [-2.00556, 47.2821], [-2.00709, 47.28248], [-2.00731, 47.28242], [-2.00768, 47.28254], [-2.00764, 47.28264], [-2.00795, 47.2827]]]}}, {"type": "Feature", "properties": {"area_ha": 2.945, "dist_km": 0.574, "node": "Loire Estuaire", "node_mw": 900, "osm_id": 498047530, "anchor_kind": "demand"}, "geometry": {"type": "Polygon", "coordinates": [[[-1.99817, 47.28554], [-1.99867, 47.2843], [-1.99872, 47.28419], [-1.99629, 47.28374], [-1.99574, 47.28508], [-1.99789, 47.28548], [-1.99794, 47.28549], [-1.998, 47.2855], [-1.99817, 47.28554]]]}}, {"type": "Feature", "properties": {"area_ha": 1.351, "dist_km": 0.693, "node": "Dunkerque", "node_mw": 3585, "osm_id": 507991692, "anchor_kind": "demand"}, "geometry": {"type": "Polygon", "coordinates": [[[2.36258, 51.02726], [2.3611, 51.0269], [2.36142, 51.02631], [2.36167, 51.02588], [2.36174, 51.02575], [2.36177, 51.02573], [2.3619, 51.02576], [2.36205, 51.0258], [2.36219, 51.02583], [2.36229, 51.02585], [2.36259, 51.02592], [2.36279, 51.02596], [2.36272, 51.02605], [2.3627, 51.0261], [2.36268, 51.02614], [2.36267, 51.02619], [2.3628, 51.0269], [2.36258, 51.02726]]]}}, {"type": "Feature", "properties": {"area_ha": 25.352, "dist_km": 0.702, "node": "Loire Estuaire", "node_mw": 900, "osm_id": 536359192, "anchor_kind": "demand"}, "geometry": {"type": "Polygon", "coordinates": [[[-2.01479, 47.27921], [-2.01338, 47.27937], [-2.01313, 47.27978], [-2.01176, 47.27966], [-2.01163, 47.27922], [-2.01014, 47.27897], [-2.00994, 47.27828], [-2.00879, 47.27813], [-2.0082, 47.27848], [-2.00705, 47.2795], [-2.00679, 47.27948], [-2.00605, 47.27931], [-2.00507, 47.27824], [-2.00475, 47.27774], [-2.00525, 47.27761], [-2.0047, 47.27686], [-2.00413, 47.27507], [-2.00418, 47.27446], [-2.00457, 47.27423], [-2.00628, 47.2743], [-2.00634, 47.27393], [-2.00775, 47.2741], [-2.00755, 47.27528], [-2.00764, 47.27558], [-2.00763, 47.27609], [-2.00825, 47.27618], [-2.0088, 47.27486], [-2.01091, 47.2768], [-2.01177, 47.27729], [-2.01222, 47.27704], [-2.01479, 47.27921]]]}}, {"type": "Feature", "properties": {"area_ha": 6.949, "dist_km": 2.685, "node": "Dunkerque", "node_mw": 3585, "osm_id": 538063674, "anchor_kind": "demand"}, "geometry": {"type": "Polygon", "coordinates": [[[2.34389, 51.00978], [2.34525, 51.00977], [2.34831, 51.01028], [2.3485, 51.01039], [2.34862, 51.01063], [2.34796, 51.01199], [2.34776, 51.01205], [2.3434, 51.01155], [2.34389, 51.00978]]]}}, {"type": "Feature", "properties": {"area_ha": 4.3, "dist_km": 1.584, "node": "Dunkerque", "node_mw": 3585, "osm_id": 557433703, "anchor_kind": "demand"}, "geometry": {"type": "Polygon", "coordinates": [[[2.35943, 51.01789], [2.35938, 51.0179], [2.359, 51.0177], [2.35898, 51.01769], [2.35895, 51.01767], [2.3589, 51.01763], [2.35885, 51.01758], [2.3588, 51.0175], [2.35876, 51.01745], [2.35862, 51.01722], [2.35851, 51.01703], [2.35848, 51.01697], [2.3585, 51.0169], [2.35888, 51.0162], [2.35903, 51.01617], [2.35916, 51.01612], [2.35954, 51.01592], [2.35969, 51.0159], [2.35981, 51.01595], [2.36142, 51.01677], [2.36181, 51.01689], [2.36214, 51.01675], [2.36254, 51.01663], [2.36263, 51.01664], [2.36228, 51.01732], [2.36186, 51.01815], [2.36093, 51.01797], [2.36049, 51.01787], [2.36025, 51.01783], [2.36016, 51.01782], [2.36006, 51.01781], [2.35998, 51.01781], [2.35987, 51.01782], [2.35977, 51.01783], [2.35968, 51.01784], [2.35957, 51.01786], [2.35943, 51.01789]]]}}, {"type": "Feature", "properties": {"area_ha": 9.828, "dist_km": 3.016, "node": "Dunkerque", "node_mw": 3585, "osm_id": 618045209, "anchor_kind": "demand"}, "geometry": {"type": "Polygon", "coordinates": [[[2.34131, 51.01136], [2.3434, 51.01155], [2.34389, 51.00978], [2.34398, 51.00948], [2.34263, 51.00927], [2.34221, 51.00912], [2.3382, 51.00852], [2.33796, 51.00951], [2.33791, 51.00973], [2.33735, 51.01006], [2.33768, 51.01043], [2.3378, 51.0105], [2.33924, 51.01067], [2.34031, 51.0109], [2.34033, 51.01097], [2.34071, 51.01111], [2.34063, 51.01131], [2.34073, 51.01132], [2.34131, 51.01136]]]}}, {"type": "Feature", "properties": {"area_ha": 3.479, "dist_km": 1.495, "node": "Dunkerque", "node_mw": 3585, "osm_id": 733837192, "anchor_kind": "demand"}, "geometry": {"type": "Polygon", "coordinates": [[[2.37357, 51.01579], [2.37351, 51.01591], [2.37356, 51.01608], [2.374, 51.01663], [2.37467, 51.01712], [2.37462, 51.0177], [2.3722, 51.01761], [2.37222, 51.01749], [2.37224, 51.01731], [2.37228, 51.01685], [2.3723, 51.01662], [2.37145, 51.01641], [2.37161, 51.01539], [2.37357, 51.01579]]]}}, {"type": "Feature", "properties": {"area_ha": 7.875, "dist_km": 1.122, "node": "Loire Estuaire", "node_mw": 900, "osm_id": 754967852, "anchor_kind": "demand"}, "geometry": {"type": "Polygon", "coordinates": [[[-2.01047, 47.28372], [-2.01081, 47.28404], [-2.0106, 47.2844], [-2.01574, 47.28612], [-2.01607, 47.2861], [-2.01539, 47.28431], [-2.01516, 47.28373], [-2.01492, 47.28369], [-2.01479, 47.28367], [-2.01388, 47.28361], [-2.01337, 47.28345], [-2.01326, 47.28305], [-2.01257, 47.28275], [-2.01047, 47.28372]]]}}, {"type": "Feature", "properties": {"area_ha": 6.582, "dist_km": 0.946, "node": "Loire Estuaire", "node_mw": 900, "osm_id": 754967853, "anchor_kind": "demand"}, "geometry": {"type": "Polygon", "coordinates": [[[-2.01533, 47.2809], [-2.0149, 47.27955], [-2.01484, 47.27938], [-2.01447, 47.27938], [-2.01338, 47.27942], [-2.0133, 47.27974], [-2.01309, 47.27984], [-2.01263, 47.27985], [-2.01214, 47.27981], [-2.01215, 47.27977], [-2.01167, 47.27972], [-2.01167, 47.28007], [-2.01167, 47.28023], [-2.01116, 47.28026], [-2.01118, 47.28049], [-2.01176, 47.28047], [-2.01154, 47.2811], [-2.01146, 47.28127], [-2.01118, 47.28119], [-2.01118, 47.28145], [-2.01131, 47.2815], [-2.01105, 47.28191], [-2.01166, 47.28211], [-2.01252, 47.28255], [-2.01277, 47.28211], [-2.01357, 47.28145], [-2.01417, 47.28131], [-2.01533, 47.2809]]]}}, {"type": "Feature", "properties": {"area_ha": 1.635, "dist_km": 1.454, "node": "Loire Estuaire", "node_mw": 900, "osm_id": 884063621, "anchor_kind": "demand"}, "geometry": {"type": "Polygon", "coordinates": [[[-2.01785, 47.28616], [-2.01725, 47.28586], [-2.01695, 47.28559], [-2.01671, 47.28491], [-2.01683, 47.28481], [-2.0183, 47.28466], [-2.01878, 47.28467], [-2.01892, 47.2847], [-2.01785, 47.28616]]]}}, {"type": "Feature", "properties": {"area_ha": 2.484, "dist_km": 0.209, "node": "Dunkerque", "node_mw": 3585, "osm_id": 911991511, "anchor_kind": "demand"}, "geometry": {"type": "Polygon", "coordinates": [[[2.37159, 51.02914], [2.37091, 51.02907], [2.36961, 51.02872], [2.37015, 51.02795], [2.37046, 51.02738], [2.3724, 51.02753], [2.37223, 51.02791], [2.37159, 51.02914]]]}}, {"type": "Feature", "properties": {"area_ha": 0.481, "dist_km": 2.019, "node": "Dunkerque", "node_mw": 3585, "osm_id": 978000775, "anchor_kind": "demand"}, "geometry": {"type": "Polygon", "coordinates": [[[2.37584, 51.01263], [2.3772, 51.01269], [2.37736, 51.01237], [2.37735, 51.01232], [2.37731, 51.01229], [2.37728, 51.01227], [2.37722, 51.01225], [2.37588, 51.0122], [2.37584, 51.01263]]]}}, {"type": "Feature", "properties": {"area_ha": 0.16, "dist_km": 2.057, "node": "Dunkerque", "node_mw": 3585, "osm_id": 978000784, "anchor_kind": "demand"}, "geometry": {"type": "Polygon", "coordinates": [[[2.37665, 51.01214], [2.37665, 51.01199], [2.37666, 51.01191], [2.37758, 51.01193], [2.37748, 51.01212], [2.37737, 51.01217], [2.37665, 51.01214]]]}}, {"type": "Feature", "properties": {"area_ha": 3.778, "dist_km": 2.558, "node": "Loire Estuaire", "node_mw": 900, "osm_id": 1126468321, "anchor_kind": "demand"}, "geometry": {"type": "Polygon", "coordinates": [[[-2.02926, 47.29005], [-2.02933, 47.28987], [-2.03021, 47.28999], [-2.03027, 47.28994], [-2.03237, 47.2899], [-2.03242, 47.29027], [-2.0328, 47.29031], [-2.03275, 47.29055], [-2.03228, 47.29108], [-2.02646, 47.29008], [-2.02673, 47.28951], [-2.02926, 47.29005]]]}}, {"type": "Feature", "properties": {"area_ha": 1.166, "dist_km": 1.755, "node": "Loire Estuaire", "node_mw": 900, "osm_id": 1126468322, "anchor_kind": "demand"}, "geometry": {"type": "Polygon", "coordinates": [[[-2.0194, 47.2871], [-2.01927, 47.28728], [-2.01941, 47.28821], [-2.02, 47.28837], [-2.02028, 47.28801], [-2.0208, 47.28792], [-2.02134, 47.28808], [-2.02116, 47.2878], [-2.02072, 47.28752], [-2.02018, 47.28729], [-2.0194, 47.2871]]]}}, {"type": "Feature", "properties": {"area_ha": 11.55, "dist_km": 1.658, "node": "Dunkerque", "node_mw": 3585, "osm_id": 1149523338, "anchor_kind": "demand"}, "geometry": {"type": "Polygon", "coordinates": [[[2.34805, 51.03836], [2.34801, 51.03827], [2.35689, 51.03708], [2.3568, 51.03683], [2.35663, 51.03602], [2.35161, 51.03628], [2.35155, 51.03627], [2.34831, 51.03581], [2.34822, 51.03579], [2.34815, 51.03578], [2.34808, 51.03596], [2.34807, 51.03598], [2.34807, 51.036], [2.34777, 51.03681], [2.3477, 51.037], [2.34763, 51.03722], [2.34761, 51.03725], [2.34721, 51.03834], [2.34719, 51.03838], [2.34714, 51.03846], [2.34709, 51.03853], [2.34716, 51.03857], [2.3478, 51.0384], [2.34788, 51.03838], [2.34805, 51.03836]]]}}, {"type": "Feature", "properties": {"area_ha": 0.138, "dist_km": 2.611, "node": "Dunkerque", "node_mw": 3585, "osm_id": 1373481383, "anchor_kind": "demand"}, "geometry": {"type": "Polygon", "coordinates": [[[2.34726, 51.01137], [2.34737, 51.01138], [2.34769, 51.01142], [2.34777, 51.01113], [2.34794, 51.01115], [2.34796, 51.01107], [2.34736, 51.011], [2.34729, 51.01125], [2.34726, 51.01137]]]}}, {"type": "Feature", "properties": {"area_ha": 0.128, "dist_km": 2.251, "node": "Dunkerque", "node_mw": 3585, "osm_id": 1373481394, "anchor_kind": "demand"}, "geometry": {"type": "Polygon", "coordinates": [[[2.37057, 51.00994], [2.3709, 51.01002], [2.37116, 51.00959], [2.37083, 51.00951], [2.37057, 51.00994]]]}}, {"type": "Feature", "properties": {"area_ha": 0.587, "dist_km": 2.726, "node": "Dunkerque", "node_mw": 3585, "osm_id": 1387895125, "anchor_kind": "demand"}, "geometry": {"type": "Polygon", "coordinates": [[[2.40377, 51.01773], [2.40232, 51.01763], [2.40273, 51.01743], [2.40298, 51.01727], [2.40308, 51.01702], [2.40316, 51.01693], [2.40342, 51.01695], [2.40348, 51.01685], [2.40382, 51.01687], [2.40379, 51.0174], [2.40377, 51.01773]]]}}, {"type": "Feature", "properties": {"area_ha": 2.04, "dist_km": 2.515, "node": "Dunkerque", "node_mw": 3585, "osm_id": 1387895130, "anchor_kind": "demand"}, "geometry": {"type": "Polygon", "coordinates": [[[2.40293, 51.01888], [2.40307, 51.01877], [2.40114, 51.01806], [2.39968, 51.01863], [2.39956, 51.01868], [2.39966, 51.01881], [2.40126, 51.01922], [2.40219, 51.01946], [2.40242, 51.01948], [2.40293, 51.01888]]]}}, {"type": "Feature", "properties": {"area_ha": 325.305, "dist_km": 2.394, "node": "Le Havre Port-Jérôme", "node_mw": 340, "osm_id": 25129619, "anchor_kind": "demand"}, "geometry": {"type": "Polygon", "coordinates": [[[0.56356, 49.48789], [0.56343, 49.48787], [0.56289, 49.48744], [0.56161, 49.48635], [0.56018, 49.48513], [0.55998, 49.48496], [0.55833, 49.48406], [0.55819, 49.48407], [0.54716, 49.47835], [0.54712, 49.47821], [0.54706, 49.47819], [0.54698, 49.47815], [0.54681, 49.47807], [0.54189, 49.47564], [0.53867, 49.47402], [0.53872, 49.47398], [0.53871, 49.47394], [0.53871, 49.47385], [0.5386, 49.4738], [0.53832, 49.47378], [0.53787, 49.47361], [0.53645, 49.47282], [0.5359, 49.4724], [0.53589, 49.47237], [0.53588, 49.47233], [0.53589, 49.47229], [0.53591, 49.47225], [0.53952, 49.46924], [0.53969, 49.46923], [0.53973, 49.4692], [0.53978, 49.46915], [0.53976, 49.46904], [0.5402, 49.46867], [0.54169, 49.46743], [0.54425, 49.46529], [0.54487, 49.46477], [0.54551, 49.46424], [0.54561, 49.46424], [0.54566, 49.4642], [0.54571, 49.46416], [0.54569, 49.46409], [0.54611, 49.46373], [0.54775, 49.46237], [0.55162, 49.46424], [0.5533, 49.46511], [0.55406, 49.46479], [0.55484, 49.46514], [0.55508, 49.46494], [0.55516, 49.46488], [0.55583, 49.46523], [0.55557, 49.46542], [0.55471, 49.46607], [0.55826, 49.46788], [0.55905, 49.46729], [0.56227, 49.46894], [0.5622, 49.469], [0.5605, 49.47038], [0.56405, 49.47221], [0.5639, 49.47233], [0.56383, 49.47239], [0.56302, 49.47306], [0.56472, 49.474], [0.56382, 49.4748], [0.5656, 49.47577], [0.56498, 49.47629], [0.56604, 49.47683], [0.56555, 49.47728], [0.5655, 49.47738], [0.56648, 49.47796], [0.5668, 49.47816], [0.56809, 49.47884], [0.56854, 49.47938], [0.56866, 49.47972], [0.56846, 49.47981], [0.56881, 49.48141], [0.56901, 49.48207], [0.56903, 49.4822], [0.56906, 49.48238], [0.56899, 49.48262], [0.56887, 49.48284], [0.56851, 49.48326], [0.56814, 49.48366], [0.56752, 49.48435], [0.56745, 49.48443], [0.56717, 49.48474], [0.56672, 49.48523], [0.56662, 49.48534], [0.56661, 49.48535], [0.56658, 49.48538], [0.5663, 49.4857], [0.56624, 49.48576], [0.56508, 49.48705], [0.56504, 49.4871], [0.56495, 49.48709], [0.56484, 49.48708], [0.56462, 49.48706], [0.56459, 49.48726], [0.56475, 49.48728], [0.56472, 49.48739], [0.56443, 49.48735], [0.56435, 49.48734], [0.56434, 49.48731], [0.56427, 49.48729], [0.56423, 49.4873], [0.56422, 49.48747], [0.5642, 49.48755], [0.56404, 49.48763], [0.56389, 49.48771], [0.56387, 49.4877], [0.56385, 49.48769], [0.56375, 49.48774], [0.56366, 49.48779], [0.56368, 49.48783], [0.56356, 49.48789]]]}}, {"type": "Feature", "properties": {"area_ha": 0.004, "dist_km": 2.371, "node": "Le Havre Port-Jérôme", "node_mw": 340, "osm_id": 64014660, "anchor_kind": "demand"}, "geometry": {"type": "Polygon", "coordinates": [[[0.53152, 49.51131], [0.53133, 49.51132], [0.53133, 49.5113], [0.53152, 49.51128], [0.53152, 49.51131]]]}}, {"type": "Feature", "properties": {"area_ha": 0.044, "dist_km": 1.327, "node": "Le Havre Port-Jérôme", "node_mw": 340, "osm_id": 64014825, "anchor_kind": "demand"}, "geometry": {"type": "Polygon", "coordinates": [[[0.51193, 49.49264], [0.51189, 49.49245], [0.51217, 49.49243], [0.51221, 49.49262], [0.51193, 49.49264]]]}}, {"type": "Feature", "properties": {"area_ha": 0.469, "dist_km": 0.401, "node": "Le Havre Port-Jérôme", "node_mw": 340, "osm_id": 64015761, "anchor_kind": "demand"}, "geometry": {"type": "Polygon", "coordinates": [[[0.53574, 49.48917], [0.53507, 49.48921], [0.53508, 49.48926], [0.53485, 49.48928], [0.53475, 49.48866], [0.53503, 49.48865], [0.53497, 49.48833], [0.53609, 49.48825], [0.53614, 49.48857], [0.53552, 49.48862], [0.53511, 49.48864], [0.53512, 49.48868], [0.535, 49.48868], [0.5348, 49.4887], [0.53484, 49.48894], [0.53504, 49.48892], [0.53505, 49.48902], [0.53544, 49.489], [0.53556, 49.48899], [0.53558, 49.48907], [0.53572, 49.48906], [0.53574, 49.48917]]]}}, {"type": "Feature", "properties": {"area_ha": 0.619, "dist_km": 0.451, "node": "Le Havre Port-Jérôme", "node_mw": 340, "osm_id": 64016039, "anchor_kind": "demand"}, "geometry": {"type": "Polygon", "coordinates": [[[0.52508, 49.49163], [0.52523, 49.49235], [0.52391, 49.49247], [0.52383, 49.49211], [0.52468, 49.49175], [0.52466, 49.49167], [0.52508, 49.49163]]]}}, {"type": "Feature", "properties": {"area_ha": 0.115, "dist_km": 1.425, "node": "Le Havre Port-Jérôme", "node_mw": 340, "osm_id": 64016065, "anchor_kind": "demand"}, "geometry": {"type": "Polygon", "coordinates": [[[0.53391, 49.47767], [0.53366, 49.47755], [0.53371, 49.47751], [0.53409, 49.47719], [0.53434, 49.47731], [0.53391, 49.47767]]]}}, {"type": "Feature", "properties": {"area_ha": 0.173, "dist_km": 0.492, "node": "Le Havre Port-Jérôme", "node_mw": 340, "osm_id": 64016172, "anchor_kind": "demand"}, "geometry": {"type": "Polygon", "coordinates": [[[0.53688, 49.48895], [0.53681, 49.48896], [0.5368, 49.48891], [0.53673, 49.48891], [0.53674, 49.48899], [0.53666, 49.48899], [0.53664, 49.48892], [0.53643, 49.48893], [0.53644, 49.48901], [0.5362, 49.48902], [0.53617, 49.48886], [0.53602, 49.48887], [0.536, 49.48874], [0.5364, 49.48871], [0.5364, 49.48874], [0.53663, 49.48873], [0.5366, 49.48855], [0.53667, 49.48855], [0.53668, 49.48859], [0.53674, 49.48859], [0.53675, 49.48863], [0.53683, 49.48863], [0.53688, 49.48895]]]}}, {"type": "Feature", "properties": {"area_ha": 0.281, "dist_km": 0.586, "node": "Le Havre Port-Jérôme", "node_mw": 340, "osm_id": 64016198, "anchor_kind": "demand"}, "geometry": {"type": "Polygon", "coordinates": [[[0.52309, 49.49325], [0.52304, 49.4931], [0.52291, 49.49311], [0.52283, 49.49285], [0.52373, 49.49272], [0.52382, 49.49298], [0.52364, 49.493], [0.5237, 49.49316], [0.52309, 49.49325]]]}}, {"type": "Feature", "properties": {"area_ha": 0.614, "dist_km": 1.532, "node": "Le Havre Port-Jérôme", "node_mw": 340, "osm_id": 64016319, "anchor_kind": "demand"}, "geometry": {"type": "Polygon", "coordinates": [[[0.53451, 49.47613], [0.53414, 49.47645], [0.53348, 49.47701], [0.5332, 49.47726], [0.53301, 49.47716], [0.53317, 49.47702], [0.53312, 49.477], [0.53321, 49.47692], [0.53294, 49.47679], [0.53379, 49.47605], [0.53404, 49.47618], [0.53419, 49.47606], [0.53424, 49.47609], [0.53458, 49.47579], [0.53466, 49.47583], [0.5346, 49.47588], [0.53438, 49.47607], [0.53451, 49.47613]]]}}, {"type": "Feature", "properties": {"area_ha": 0.913, "dist_km": 0.497, "node": "Le Havre Port-Jérôme", "node_mw": 340, "osm_id": 64016464, "anchor_kind": "demand"}, "geometry": {"type": "Polygon", "coordinates": [[[0.52252, 49.49041], [0.52236, 49.48965], [0.52235, 49.4896], [0.52372, 49.48947], [0.52389, 49.49023], [0.5239, 49.49028], [0.52252, 49.49041]]]}}, {"type": "Feature", "properties": {"area_ha": 0.035, "dist_km": 1.334, "node": "Le Havre Port-Jérôme", "node_mw": 340, "osm_id": 64016647, "anchor_kind": "demand"}, "geometry": {"type": "Polygon", "coordinates": [[[0.51168, 49.49172], [0.51163, 49.4915], [0.51159, 49.49151], [0.51159, 49.49147], [0.51179, 49.49145], [0.51184, 49.4917], [0.51168, 49.49172]]]}}, {"type": "Feature", "properties": {"area_ha": 1.614, "dist_km": 0.37, "node": "Le Havre Port-Jérôme", "node_mw": 340, "osm_id": 64016726, "anchor_kind": "demand"}, "geometry": {"type": "Polygon", "coordinates": [[[0.52554, 49.48895], [0.52515, 49.48716], [0.52625, 49.48706], [0.52663, 49.48885], [0.52554, 49.48895]]]}}, {"type": "Feature", "properties": {"area_ha": 0.018, "dist_km": 1.596, "node": "Le Havre Port-Jérôme", "node_mw": 340, "osm_id": 64016742, "anchor_kind": "demand"}, "geometry": {"type": "Polygon", "coordinates": [[[0.53503, 49.47601], [0.53503, 49.47601], [0.53503, 49.47602], [0.53503, 49.47603], [0.53502, 49.47604], [0.53502, 49.47605], [0.53501, 49.47605], [0.535, 49.47606], [0.53499, 49.47607], [0.53498, 49.47607], [0.53497, 49.47607], [0.53496, 49.47608], [0.53495, 49.47608], [0.53493, 49.47608], [0.53491, 49.47608], [0.5349, 49.47608], [0.53489, 49.47607], [0.53487, 49.47607], [0.53485, 49.47606], [0.53484, 49.47605], [0.53483, 49.47604], [0.53483, 49.47603], [0.53482, 49.47603], [0.53482, 49.47602], [0.53482, 49.47601], [0.53482, 49.476], [0.53482, 49.476], [0.53483, 49.47599], [0.53483, 49.47598], [0.53483, 49.47598], [0.53484, 49.47597], [0.53485, 49.47596], [0.53487, 49.47595], [0.53487, 49.47595], [0.53489, 49.47595], [0.5349, 49.47594], [0.53491, 49.47594], [0.53493, 49.47594], [0.53494, 49.47594], [0.53495, 49.47594], [0.53495, 49.47594], [0.53497, 49.47595], [0.53498, 49.47595], [0.53499, 49.47596], [0.535, 49.47596], [0.53501, 49.47597], [0.53502, 49.47598], [0.53502, 49.47598], [0.53503, 49.47599], [0.53503, 49.476], [0.53503, 49.47601], [0.53503, 49.47601]]]}}, {"type": "Feature", "properties": {"area_ha": 0.091, "dist_km": 1.506, "node": "Le Havre Port-Jérôme", "node_mw": 340, "osm_id": 64016901, "anchor_kind": "demand"}, "geometry": {"type": "Polygon", "coordinates": [[[0.53348, 49.47701], [0.53414, 49.47645], [0.53427, 49.47651], [0.53421, 49.47656], [0.53413, 49.47663], [0.53361, 49.47708], [0.53348, 49.47701]]]}}, {"type": "Feature", "properties": {"area_ha": 0.011, "dist_km": 2.449, "node": "Le Havre Port-Jérôme", "node_mw": 340, "osm_id": 64016943, "anchor_kind": "demand"}, "geometry": {"type": "Polygon", "coordinates": [[[0.53319, 49.5119], [0.5332, 49.51196], [0.53298, 49.51197], [0.53297, 49.51191], [0.53319, 49.5119]]]}}, {"type": "Feature", "properties": {"area_ha": 1.817, "dist_km": 0.552, "node": "Le Havre Port-Jérôme", "node_mw": 340, "osm_id": 64017519, "anchor_kind": "demand"}, "geometry": {"type": "Polygon", "coordinates": [[[0.52364, 49.4891], [0.52227, 49.48923], [0.52192, 49.48762], [0.5233, 49.4875], [0.52364, 49.4891]]]}}, {"type": "Feature", "properties": {"area_ha": 0.025, "dist_km": 1.333, "node": "Le Havre Port-Jérôme", "node_mw": 340, "osm_id": 64017571, "anchor_kind": "demand"}, "geometry": {"type": "Polygon", "coordinates": [[[0.51167, 49.49191], [0.51164, 49.49178], [0.51186, 49.49176], [0.51189, 49.49189], [0.51167, 49.49191]]]}}, {"type": "Feature", "properties": {"area_ha": 0.105, "dist_km": 1.44, "node": "Le Havre Port-Jérôme", "node_mw": 340, "osm_id": 64017630, "anchor_kind": "demand"}, "geometry": {"type": "Polygon", "coordinates": [[[0.53371, 49.47751], [0.53346, 49.47739], [0.53383, 49.47706], [0.53409, 49.47719], [0.53371, 49.47751]]]}}, {"type": "Feature", "properties": {"area_ha": 0.112, "dist_km": 0.388, "node": "Le Havre Port-Jérôme", "node_mw": 340, "osm_id": 64017694, "anchor_kind": "demand"}, "geometry": {"type": "Polygon", "coordinates": [[[0.535, 49.48868], [0.53502, 49.48879], [0.5354, 49.48877], [0.53544, 49.489], [0.53505, 49.48902], [0.53504, 49.48892], [0.53484, 49.48894], [0.5348, 49.4887], [0.535, 49.48868]]]}}, {"type": "Feature", "properties": {"area_ha": 0.064, "dist_km": 2.403, "node": "Le Havre Port-Jérôme", "node_mw": 340, "osm_id": 64017829, "anchor_kind": "demand"}, "geometry": {"type": "Polygon", "coordinates": [[[0.53302, 49.51165], [0.53299, 49.51138], [0.53314, 49.51137], [0.53314, 49.51136], [0.53326, 49.51135], [0.5333, 49.51166], [0.53318, 49.51167], [0.53317, 49.51164], [0.53302, 49.51165]]]}}, {"type": "Feature", "properties": {"area_ha": 0.066, "dist_km": 2.402, "node": "Le Havre Port-Jérôme", "node_mw": 340, "osm_id": 64018189, "anchor_kind": "demand"}, "geometry": {"type": "Polygon", "coordinates": [[[0.53192, 49.51173], [0.53189, 49.51141], [0.53214, 49.5114], [0.53215, 49.51142], [0.53218, 49.5117], [0.53219, 49.51172], [0.53192, 49.51173]]]}}, {"type": "Feature", "properties": {"area_ha": 0.038, "dist_km": 1.301, "node": "Le Havre Port-Jérôme", "node_mw": 340, "osm_id": 64018989, "anchor_kind": "demand"}, "geometry": {"type": "Polygon", "coordinates": [[[0.51229, 49.49253], [0.51223, 49.49228], [0.51237, 49.49226], [0.51236, 49.49224], [0.51241, 49.49224], [0.51247, 49.49252], [0.51229, 49.49253]]]}}, {"type": "Feature", "properties": {"area_ha": 0.012, "dist_km": 1.41, "node": "Le Havre Port-Jérôme", "node_mw": 340, "osm_id": 64019304, "anchor_kind": "demand"}, "geometry": {"type": "Polygon", "coordinates": [[[0.53331, 49.47751], [0.53338, 49.47745], [0.53344, 49.47748], [0.53344, 49.47747], [0.53351, 49.4775], [0.53346, 49.47754], [0.53352, 49.47757], [0.53348, 49.4776], [0.53331, 49.47751]]]}}, {"type": "Feature", "properties": {"area_ha": 0.159, "dist_km": 0.414, "node": "Le Havre Port-Jérôme", "node_mw": 340, "osm_id": 64019324, "anchor_kind": "demand"}, "geometry": {"type": "Polygon", "coordinates": [[[0.53604, 49.49], [0.53572, 49.49001], [0.53571, 49.48992], [0.53548, 49.48994], [0.53543, 49.48964], [0.53597, 49.4896], [0.53604, 49.49]]]}}, {"type": "Feature", "properties": {"area_ha": 0.031, "dist_km": 1.59, "node": "Le Havre Port-Jérôme", "node_mw": 340, "osm_id": 64019573, "anchor_kind": "demand"}, "geometry": {"type": "Polygon", "coordinates": [[[0.53451, 49.47613], [0.53438, 49.47607], [0.5346, 49.47588], [0.53473, 49.47595], [0.53451, 49.47613]]]}}, {"type": "Feature", "properties": {"area_ha": 0.186, "dist_km": 2.402, "node": "Le Havre Port-Jérôme", "node_mw": 340, "osm_id": 64019783, "anchor_kind": "demand"}, "geometry": {"type": "Polygon", "coordinates": [[[0.53218, 49.5117], [0.53215, 49.51142], [0.53299, 49.51138], [0.53302, 49.51165], [0.53218, 49.5117]]]}}, {"type": "Feature", "properties": {"area_ha": 0.044, "dist_km": 1.36, "node": "Le Havre Port-Jérôme", "node_mw": 340, "osm_id": 64020196, "anchor_kind": "demand"}, "geometry": {"type": "Polygon", "coordinates": [[[0.51127, 49.49182], [0.51123, 49.49161], [0.5113, 49.49161], [0.51148, 49.49159], [0.51153, 49.49181], [0.51134, 49.49182], [0.51127, 49.49182]]]}}, {"type": "Feature", "properties": {"area_ha": 0.687, "dist_km": 0.641, "node": "Le Havre Port-Jérôme", "node_mw": 340, "osm_id": 64023012, "anchor_kind": "demand"}, "geometry": {"type": "Polygon", "coordinates": [[[0.52192, 49.48762], [0.52182, 49.48714], [0.52181, 49.48708], [0.52184, 49.48708], [0.52181, 49.48695], [0.52198, 49.48693], [0.52206, 49.48693], [0.52218, 49.48693], [0.52229, 49.48693], [0.52247, 49.48693], [0.52251, 49.48694], [0.52264, 49.48695], [0.52271, 49.48696], [0.52272, 49.487], [0.52319, 49.48696], [0.5232, 49.48702], [0.5233, 49.4875], [0.52192, 49.48762]]]}}, {"type": "Feature", "properties": {"area_ha": 0.048, "dist_km": 1.52, "node": "Le Havre Port-Jérôme", "node_mw": 340, "osm_id": 64023130, "anchor_kind": "demand"}, "geometry": {"type": "Polygon", "coordinates": [[[0.53421, 49.47656], [0.53425, 49.47658], [0.5343, 49.47653], [0.53434, 49.47655], [0.53431, 49.47657], [0.53464, 49.47673], [0.53453, 49.47682], [0.53413, 49.47663], [0.53421, 49.47656]]]}}, {"type": "Feature", "properties": {"area_ha": 27.504, "dist_km": 1.027, "node": "Le Havre Port-Jérôme", "node_mw": 340, "osm_id": 97901363, "anchor_kind": "demand"}, "geometry": {"type": "Polygon", "coordinates": [[[0.5352, 49.49342], [0.53958, 49.49356], [0.53608, 49.49657], [0.53575, 49.49685], [0.53588, 49.49758], [0.53731, 49.49644], [0.53874, 49.49524], [0.53964, 49.49542], [0.54079, 49.49566], [0.54311, 49.49562], [0.54486, 49.49506], [0.54621, 49.49665], [0.54462, 49.49738], [0.54382, 49.49777], [0.54311, 49.49811], [0.54182, 49.49876], [0.54125, 49.49904], [0.53962, 49.49916], [0.53799, 49.49935], [0.53792, 49.49922], [0.53733, 49.49803], [0.53728, 49.4979], [0.53726, 49.49791], [0.53586, 49.49821], [0.53512, 49.49356], [0.5352, 49.49342]]]}}, {"type": "Feature", "properties": {"area_ha": 11.049, "dist_km": 1.021, "node": "Le Havre Port-Jérôme", "node_mw": 340, "osm_id": 98543722, "anchor_kind": "demand"}, "geometry": {"type": "Polygon", "coordinates": [[[0.53187, 49.47801], [0.53196, 49.47855], [0.53201, 49.47888], [0.53217, 49.47962], [0.53237, 49.4796], [0.53247, 49.4801], [0.53252, 49.48027], [0.53266, 49.48072], [0.5329, 49.482], [0.53318, 49.4838], [0.53303, 49.48383], [0.53058, 49.4825], [0.53104, 49.48209], [0.53127, 49.4819], [0.53082, 49.48167], [0.52993, 49.48245], [0.52827, 49.48165], [0.52832, 49.48125], [0.52866, 49.48088], [0.52857, 49.48083], [0.52941, 49.48014], [0.52934, 49.4801], [0.53112, 49.47861], [0.53187, 49.47801]]]}}, {"type": "Feature", "properties": {"area_ha": 2.06, "dist_km": 1.713, "node": "Saint-Avold", "node_mw": 519, "osm_id": 101992267, "anchor_kind": "demand"}, "geometry": {"type": "Polygon", "coordinates": [[[6.71358, 49.08456], [6.71429, 49.08492], [6.71357, 49.08553], [6.71335, 49.08542], [6.71332, 49.08541], [6.7133, 49.08543], [6.71312, 49.08558], [6.71158, 49.08479], [6.71176, 49.08464], [6.71178, 49.08461], [6.71176, 49.0846], [6.71143, 49.08443], [6.71143, 49.08442], [6.71159, 49.08429], [6.71215, 49.08382], [6.71216, 49.08382], [6.71248, 49.08399], [6.71257, 49.08404], [6.71358, 49.08456]]]}}, {"type": "Feature", "properties": {"area_ha": 0.412, "dist_km": 1.57, "node": "Saint-Avold", "node_mw": 519, "osm_id": 101993750, "anchor_kind": "demand"}, "geometry": {"type": "Polygon", "coordinates": [[[6.71599, 49.08644], [6.71605, 49.08639], [6.71642, 49.08658], [6.71636, 49.08663], [6.71642, 49.08666], [6.71626, 49.08679], [6.71596, 49.08664], [6.7159, 49.08661], [6.71584, 49.08657], [6.71588, 49.08653], [6.7157, 49.08644], [6.71552, 49.08635], [6.71542, 49.08644], [6.71502, 49.08624], [6.71565, 49.08571], [6.71604, 49.08591], [6.71563, 49.08626], [6.71565, 49.08627], [6.71599, 49.08644]]]}}, {"type": "Feature", "properties": {"area_ha": 3.341, "dist_km": 1.794, "node": "Saint-Avold", "node_mw": 519, "osm_id": 101994838, "anchor_kind": "demand"}, "geometry": {"type": "Polygon", "coordinates": [[[6.71373, 49.08442], [6.71494, 49.08341], [6.7151, 49.08328], [6.71625, 49.08387], [6.71716, 49.08434], [6.71727, 49.08439], [6.71732, 49.08442], [6.71676, 49.0849], [6.71596, 49.08557], [6.71445, 49.08479], [6.71373, 49.08442]]]}}, {"type": "Feature", "properties": {"area_ha": 0.674, "dist_km": 1.611, "node": "Saint-Avold", "node_mw": 519, "osm_id": 101995625, "anchor_kind": "demand"}, "geometry": {"type": "Polygon", "coordinates": [[[6.71427, 49.08579], [6.71431, 49.08576], [6.71494, 49.08523], [6.71496, 49.08522], [6.71561, 49.08555], [6.71464, 49.08636], [6.71431, 49.08619], [6.71436, 49.08616], [6.71404, 49.08599], [6.71404, 49.08599], [6.71427, 49.08579]]]}}, {"type": "Feature", "properties": {"area_ha": 2.26, "dist_km": 2.969, "node": "Saint-Avold", "node_mw": 519, "osm_id": 216963731, "anchor_kind": "demand"}, "geometry": {"type": "Polygon", "coordinates": [[[6.72955, 49.07721], [6.73012, 49.07745], [6.73, 49.07765], [6.73043, 49.07786], [6.73064, 49.07766], [6.7308, 49.0775], [6.73097, 49.07734], [6.73134, 49.0771], [6.73173, 49.07686], [6.73186, 49.07679], [6.73268, 49.07618], [6.73184, 49.07565], [6.73001, 49.07675], [6.72955, 49.07721]]]}}, {"type": "Feature", "properties": {"area_ha": 4.653, "dist_km": 1.668, "node": "Le Havre Port-Jérôme", "node_mw": 340, "osm_id": 218042458, "anchor_kind": "demand"}, "geometry": {"type": "Polygon", "coordinates": [[[0.51045, 49.49673], [0.51023, 49.49562], [0.51005, 49.49469], [0.50768, 49.49494], [0.50759, 49.49565], [0.5079, 49.49712], [0.50804, 49.49735], [0.51045, 49.49673]]]}}, {"type": "Feature", "properties": {"area_ha": 37.903, "dist_km": 3.015, "node": "Saint-Avold", "node_mw": 519, "osm_id": 309300722, "anchor_kind": "demand"}, "geometry": {"type": "Polygon", "coordinates": [[[6.68079, 49.08511], [6.68127, 49.08501], [6.68192, 49.08503], [6.68187, 49.0853], [6.68152, 49.08593], [6.68138, 49.08642], [6.68108, 49.08751], [6.67861, 49.08719], [6.67819, 49.08829], [6.67556, 49.08826], [6.67253, 49.08771], [6.67093, 49.0873], [6.67078, 49.0871], [6.66964, 49.08697], [6.66949, 49.0855], [6.66884, 49.08513], [6.66928, 49.08459], [6.66895, 49.08329], [6.6698, 49.08332], [6.67033, 49.08277], [6.67114, 49.08221], [6.67196, 49.0824], [6.67241, 49.08238], [6.67455, 49.08281], [6.67496, 49.08223], [6.67666, 49.08275], [6.67625, 49.08331], [6.67549, 49.08438], [6.67673, 49.08473], [6.67645, 49.0852], [6.67874, 49.08574], [6.67996, 49.08585], [6.68079, 49.08589], [6.68079, 49.08511]]]}}, {"type": "Feature", "properties": {"area_ha": 17.118, "dist_km": 0.431, "node": "Le Havre Port-Jérôme", "node_mw": 340, "osm_id": 532460787, "anchor_kind": "demand"}, "geometry": {"type": "Polygon", "coordinates": [[[0.53415, 49.48685], [0.53562, 49.48689], [0.54111, 49.4897], [0.541, 49.48979], [0.54029, 49.49041], [0.53822, 49.49055], [0.53832, 49.49117], [0.53877, 49.49121], [0.53882, 49.49146], [0.53827, 49.49158], [0.53782, 49.4912], [0.53655, 49.49129], [0.53688, 49.49295], [0.53528, 49.49269], [0.53516, 49.49267], [0.5351, 49.49237], [0.53508, 49.49226], [0.53503, 49.49208], [0.53491, 49.49133], [0.5349, 49.49129], [0.5346, 49.48964], [0.53473, 49.48963], [0.53472, 49.48961], [0.53472, 49.48958], [0.5347, 49.48946], [0.53474, 49.48946], [0.53472, 49.48935], [0.53476, 49.48934], [0.53472, 49.48914], [0.53463, 49.48914], [0.53456, 49.48915], [0.53446, 49.48846], [0.5344, 49.48846], [0.53433, 49.48847], [0.53429, 49.48825], [0.53439, 49.48824], [0.53415, 49.48685]]]}}, {"type": "Feature", "properties": {"area_ha": 8.104, "dist_km": 0.612, "node": "Le Havre Port-Jérôme", "node_mw": 340, "osm_id": 607458958, "anchor_kind": "demand"}, "geometry": {"type": "Polygon", "coordinates": [[[0.52043, 49.48537], [0.52012, 49.48545], [0.51959, 49.48561], [0.51899, 49.48589], [0.51924, 49.48607], [0.52076, 49.48615], [0.52089, 49.48615], [0.5227, 49.4862], [0.52343, 49.48622], [0.52394, 49.48623], [0.52451, 49.48624], [0.52511, 49.48626], [0.52549, 49.48627], [0.52619, 49.48629], [0.5263, 49.48618], [0.52686, 49.48619], [0.52751, 49.4862], [0.52797, 49.48621], [0.52859, 49.48512], [0.52843, 49.48517], [0.52834, 49.48516], [0.52824, 49.48516], [0.52816, 49.48509], [0.5279, 49.48507], [0.52785, 49.48513], [0.52782, 49.48513], [0.52776, 49.48512], [0.52774, 49.48508], [0.52772, 49.48506], [0.52755, 49.48505], [0.52696, 49.485], [0.52593, 49.48491], [0.52483, 49.48485], [0.52365, 49.48494], [0.52072, 49.48524], [0.52044, 49.48529], [0.52043, 49.48537]]]}}, {"type": "Feature", "properties": {"area_ha": 13.271, "dist_km": 1.509, "node": "Le Havre Port-Jérôme", "node_mw": 340, "osm_id": 607458959, "anchor_kind": "demand"}, "geometry": {"type": "Polygon", "coordinates": [[[0.53449, 49.47347], [0.5351, 49.47384], [0.53519, 49.47405], [0.5351, 49.47427], [0.53498, 49.4744], [0.53482, 49.47455], [0.53458, 49.47478], [0.53437, 49.47499], [0.53409, 49.47525], [0.53373, 49.47556], [0.53337, 49.47587], [0.53304, 49.47616], [0.53286, 49.47632], [0.53276, 49.47641], [0.53272, 49.47652], [0.53255, 49.47672], [0.53237, 49.47702], [0.5323, 49.47718], [0.53187, 49.47801], [0.53112, 49.47861], [0.52934, 49.4801], [0.52941, 49.48014], [0.52802, 49.48099], [0.52658, 49.48018], [0.5264, 49.48009], [0.52704, 49.4796], [0.52837, 49.47849], [0.52966, 49.47737], [0.52968, 49.47737], [0.53088, 49.47634], [0.53164, 49.47564], [0.53221, 49.47512], [0.53236, 49.47489], [0.53242, 49.47491], [0.53251, 49.47492], [0.53434, 49.47342], [0.53449, 49.47347]]]}}, {"type": "Feature", "properties": {"area_ha": 26.513, "dist_km": 0.196, "node": "Le Havre Port-Jérôme", "node_mw": 340, "osm_id": 607458962, "anchor_kind": "demand"}, "geometry": {"type": "Polygon", "coordinates": [[[0.52252, 49.49378], [0.5223, 49.49279], [0.52218, 49.49281], [0.52209, 49.49241], [0.52207, 49.4923], [0.52238, 49.49227], [0.52231, 49.49198], [0.52286, 49.4919], [0.52275, 49.49116], [0.52365, 49.49104], [0.52353, 49.49043], [0.52459, 49.49033], [0.52533, 49.49026], [0.52523, 49.48981], [0.5252, 49.48966], [0.52504, 49.48956], [0.52501, 49.48938], [0.52522, 49.48936], [0.52541, 49.48934], [0.52548, 49.48963], [0.52552, 49.48962], [0.52721, 49.48947], [0.52725, 49.48956], [0.52749, 49.48967], [0.52754, 49.48971], [0.52757, 49.48977], [0.52753, 49.48986], [0.52747, 49.48996], [0.5274, 49.49003], [0.52731, 49.4901], [0.52732, 49.4902], [0.52744, 49.49018], [0.53177, 49.48994], [0.53359, 49.48984], [0.53386, 49.48982], [0.53388, 49.4899], [0.53388, 49.48994], [0.53409, 49.49118], [0.53389, 49.4912], [0.53379, 49.4912], [0.5338, 49.49128], [0.53364, 49.49129], [0.53365, 49.49134], [0.53366, 49.49139], [0.53394, 49.49152], [0.53413, 49.49151], [0.53427, 49.49234], [0.53402, 49.49252], [0.52781, 49.49284], [0.52778, 49.49284], [0.52606, 49.49293], [0.52544, 49.49303], [0.52534, 49.49304], [0.52363, 49.49349], [0.52252, 49.49378]]]}}, {"type": "Feature", "properties": {"area_ha": 0.028, "dist_km": 2.986, "node": "Le Havre Port-Jérôme", "node_mw": 340, "osm_id": 685087484, "anchor_kind": "demand"}, "geometry": {"type": "Polygon", "coordinates": [[[0.48877, 49.48704], [0.48882, 49.48709], [0.48884, 49.48712], [0.48894, 49.48714], [0.4891, 49.48709], [0.48898, 49.48696], [0.48877, 49.48704]]]}}, {"type": "Feature", "properties": {"area_ha": 3.72, "dist_km": 1.022, "node": "Le Havre Port-Jérôme", "node_mw": 340, "osm_id": 686449316, "anchor_kind": "demand"}, "geometry": {"type": "Polygon", "coordinates": [[[0.5331, 49.48055], [0.53324, 49.48042], [0.53328, 49.48039], [0.53345, 49.48047], [0.53346, 49.48045], [0.53348, 49.48043], [0.53352, 49.4804], [0.53336, 49.48031], [0.53359, 49.48011], [0.53615, 49.48142], [0.53423, 49.483], [0.53348, 49.48261], [0.53335, 49.48197], [0.53376, 49.48194], [0.5337, 49.48157], [0.53369, 49.48148], [0.53327, 49.4815], [0.5331, 49.48055]]]}}, {"type": "Feature", "properties": {"area_ha": 4.835, "dist_km": 1.787, "node": "Saint-Avold", "node_mw": 519, "osm_id": 693097315, "anchor_kind": "demand"}, "geometry": {"type": "Polygon", "coordinates": [[[6.72416, 49.08838], [6.72548, 49.08746], [6.72475, 49.08699], [6.72377, 49.08634], [6.72117, 49.08435], [6.72052, 49.08475], [6.72041, 49.08481], [6.72168, 49.08589], [6.72258, 49.08666], [6.7223, 49.08681], [6.72416, 49.08838]]]}}, {"type": "Feature", "properties": {"area_ha": 2.762, "dist_km": 1.675, "node": "Saint-Avold", "node_mw": 519, "osm_id": 693097316, "anchor_kind": "demand"}, "geometry": {"type": "Polygon", "coordinates": [[[6.71782, 49.08593], [6.71766, 49.08586], [6.71861, 49.08502], [6.71892, 49.08497], [6.71937, 49.08539], [6.71987, 49.08602], [6.72025, 49.0862], [6.72095, 49.08678], [6.72014, 49.08718], [6.71997, 49.08704], [6.7187, 49.08691], [6.71835, 49.08673], [6.71877, 49.08645], [6.71782, 49.08593]]]}}, {"type": "Feature", "properties": {"area_ha": 2.951, "dist_km": 1.564, "node": "Saint-Avold", "node_mw": 519, "osm_id": 693097317, "anchor_kind": "demand"}, "geometry": {"type": "Polygon", "coordinates": [[[6.71007, 49.08457], [6.71135, 49.08543], [6.71206, 49.08585], [6.71241, 49.08607], [6.71275, 49.08622], [6.71233, 49.08655], [6.71183, 49.08632], [6.71117, 49.08686], [6.71081, 49.08675], [6.70989, 49.08589], [6.70904, 49.08553], [6.7091, 49.08537], [6.71007, 49.08457]]]}}, {"type": "Feature", "properties": {"area_ha": 9.964, "dist_km": 0.815, "node": "Le Havre Port-Jérôme", "node_mw": 340, "osm_id": 776810678, "anchor_kind": "demand"}, "geometry": {"type": "Polygon", "coordinates": [[[0.51504, 49.48804], [0.51565, 49.49031], [0.5182, 49.4901], [0.51821, 49.49014], [0.51864, 49.49011], [0.51841, 49.48904], [0.52052, 49.48881], [0.52043, 49.48843], [0.52092, 49.48837], [0.52063, 49.48726], [0.52039, 49.48704], [0.52056, 49.48682], [0.51985, 49.48692], [0.51798, 49.48736], [0.51504, 49.48804]]]}}, {"type": "Feature", "properties": {"area_ha": 0.059, "dist_km": 1.061, "node": "Le Havre Port-Jérôme", "node_mw": 340, "osm_id": 788174550, "anchor_kind": "demand"}, "geometry": {"type": "Polygon", "coordinates": [[[0.51602, 49.49346], [0.51652, 49.49341], [0.51651, 49.49334], [0.51649, 49.49326], [0.51599, 49.49331], [0.51601, 49.49338], [0.51602, 49.49346]]]}}, {"type": "Feature", "properties": {"area_ha": 0.513, "dist_km": 0.95, "node": "Le Havre Port-Jérôme", "node_mw": 340, "osm_id": 788174553, "anchor_kind": "demand"}, "geometry": {"type": "Polygon", "coordinates": [[[0.51686, 49.49319], [0.51677, 49.49275], [0.51717, 49.49271], [0.51719, 49.4928], [0.51759, 49.49276], [0.51755, 49.49258], [0.51799, 49.49254], [0.51804, 49.49273], [0.51834, 49.4927], [0.51842, 49.49306], [0.51801, 49.4931], [0.51799, 49.49303], [0.51727, 49.49309], [0.51728, 49.49315], [0.51686, 49.49319]]]}}, {"type": "Feature", "properties": {"area_ha": 0.134, "dist_km": 0.97, "node": "Le Havre Port-Jérôme", "node_mw": 340, "osm_id": 788174554, "anchor_kind": "demand"}, "geometry": {"type": "Polygon", "coordinates": [[[0.51741, 49.49363], [0.51798, 49.49357], [0.51792, 49.49329], [0.51735, 49.49334], [0.51741, 49.49363]]]}}, {"type": "Feature", "properties": {"area_ha": 0.031, "dist_km": 1.038, "node": "Le Havre Port-Jérôme", "node_mw": 340, "osm_id": 788174555, "anchor_kind": "demand"}, "geometry": {"type": "Polygon", "coordinates": [[[0.51678, 49.49387], [0.51686, 49.49386], [0.51694, 49.49385], [0.5169, 49.49362], [0.51682, 49.49362], [0.51674, 49.49363], [0.51678, 49.49387]]]}}, {"type": "Feature", "properties": {"area_ha": 0.19, "dist_km": 1.111, "node": "Le Havre Port-Jérôme", "node_mw": 340, "osm_id": 788174572, "anchor_kind": "demand"}, "geometry": {"type": "Polygon", "coordinates": [[[0.5147, 49.49228], [0.51527, 49.49223], [0.51519, 49.49183], [0.51462, 49.49188], [0.5147, 49.49228]]]}}, {"type": "Feature", "properties": {"area_ha": 0.276, "dist_km": 0.936, "node": "Le Havre Port-Jérôme", "node_mw": 340, "osm_id": 788180534, "anchor_kind": "demand"}, "geometry": {"type": "Polygon", "coordinates": [[[0.51663, 49.49085], [0.51762, 49.49076], [0.51756, 49.49048], [0.5172, 49.49051], [0.51716, 49.49031], [0.5169, 49.49034], [0.51695, 49.49052], [0.51656, 49.49056], [0.51663, 49.49085]]]}}, {"type": "Feature", "properties": {"area_ha": 0.075, "dist_km": 1.045, "node": "Le Havre Port-Jérôme", "node_mw": 340, "osm_id": 788180554, "anchor_kind": "demand"}, "geometry": {"type": "Polygon", "coordinates": [[[0.51576, 49.49087], [0.51559, 49.49089], [0.51555, 49.49067], [0.51546, 49.49068], [0.51541, 49.49045], [0.51566, 49.49043], [0.51576, 49.49087]]]}}, {"type": "Feature", "properties": {"area_ha": 0.019, "dist_km": 1.098, "node": "Le Havre Port-Jérôme", "node_mw": 340, "osm_id": 788180556, "anchor_kind": "demand"}, "geometry": {"type": "Polygon", "coordinates": [[[0.51479, 49.4913], [0.51507, 49.49127], [0.51505, 49.49119], [0.51477, 49.49121], [0.51479, 49.4913]]]}}, {"type": "Feature", "properties": {"area_ha": 0.034, "dist_km": 1.135, "node": "Le Havre Port-Jérôme", "node_mw": 340, "osm_id": 788180557, "anchor_kind": "demand"}, "geometry": {"type": "Polygon", "coordinates": [[[0.51425, 49.49134], [0.51461, 49.49131], [0.51458, 49.49119], [0.51422, 49.49123], [0.51425, 49.49134]]]}}, {"type": "Feature", "properties": {"area_ha": 0.006, "dist_km": 1.112, "node": "Le Havre Port-Jérôme", "node_mw": 340, "osm_id": 788188419, "anchor_kind": "demand"}, "geometry": {"type": "Polygon", "coordinates": [[[0.51472, 49.48871], [0.51479, 49.4887], [0.51477, 49.48859], [0.5147, 49.48859], [0.51472, 49.48871]]]}}, {"type": "Feature", "properties": {"area_ha": 0.006, "dist_km": 0.867, "node": "Le Havre Port-Jérôme", "node_mw": 340, "osm_id": 788188421, "anchor_kind": "demand"}, "geometry": {"type": "Polygon", "coordinates": [[[0.51846, 49.49226], [0.51853, 49.49226], [0.5185, 49.49214], [0.51843, 49.49215], [0.51846, 49.49226]]]}}, {"type": "Feature", "properties": {"area_ha": 0.061, "dist_km": 1.224, "node": "Le Havre Port-Jérôme", "node_mw": 340, "osm_id": 788188460, "anchor_kind": "demand"}, "geometry": {"type": "Polygon", "coordinates": [[[0.51371, 49.49353], [0.51367, 49.49335], [0.51408, 49.49331], [0.51412, 49.49349], [0.51371, 49.49353]]]}}, {"type": "Feature", "properties": {"area_ha": 0.037, "dist_km": 1.295, "node": "Le Havre Port-Jérôme", "node_mw": 340, "osm_id": 788188461, "anchor_kind": "demand"}, "geometry": {"type": "Polygon", "coordinates": [[[0.51273, 49.49359], [0.51313, 49.49356], [0.51311, 49.49345], [0.5127, 49.49348], [0.51273, 49.49359]]]}}, {"type": "Feature", "properties": {"area_ha": 0.032, "dist_km": 1.061, "node": "Le Havre Port-Jérôme", "node_mw": 340, "osm_id": 788190322, "anchor_kind": "demand"}, "geometry": {"type": "Polygon", "coordinates": [[[0.51567, 49.49254], [0.51589, 49.49251], [0.51587, 49.49244], [0.51594, 49.49244], [0.51592, 49.49234], [0.51571, 49.49236], [0.51573, 49.49241], [0.51565, 49.49242], [0.51567, 49.49254]]]}}, {"type": "Feature", "properties": {"area_ha": 0.041, "dist_km": 0.912, "node": "Le Havre Port-Jérôme", "node_mw": 340, "osm_id": 788190323, "anchor_kind": "demand"}, "geometry": {"type": "Polygon", "coordinates": [[[0.51724, 49.49047], [0.51756, 49.49044], [0.51752, 49.49028], [0.51721, 49.49031], [0.51724, 49.49047]]]}}, {"type": "Feature", "properties": {"area_ha": 0.013, "dist_km": 0.89, "node": "Le Havre Port-Jérôme", "node_mw": 340, "osm_id": 788190324, "anchor_kind": "demand"}, "geometry": {"type": "Polygon", "coordinates": [[[0.51762, 49.49041], [0.51774, 49.4904], [0.51778, 49.49058], [0.51772, 49.49058], [0.5177, 49.4905], [0.51764, 49.4905], [0.51762, 49.49041]]]}}, {"type": "Feature", "properties": {"area_ha": 0.574, "dist_km": 0.92, "node": "Le Havre Port-Jérôme", "node_mw": 340, "osm_id": 788197711, "anchor_kind": "demand"}, "geometry": {"type": "Polygon", "coordinates": [[[0.5171, 49.48947], [0.51785, 49.48939], [0.51762, 49.48842], [0.51747, 49.48843], [0.51748, 49.48849], [0.51689, 49.48855], [0.5171, 49.48947]]]}}, {"type": "Feature", "properties": {"area_ha": 0.296, "dist_km": 0.977, "node": "Le Havre Port-Jérôme", "node_mw": 340, "osm_id": 788197712, "anchor_kind": "demand"}, "geometry": {"type": "Polygon", "coordinates": [[[0.51666, 49.48952], [0.51686, 49.4895], [0.51667, 49.48864], [0.51682, 49.48863], [0.51678, 49.48845], [0.51692, 49.48844], [0.5169, 49.48839], [0.51686, 49.48816], [0.5168, 49.48817], [0.51679, 49.48812], [0.51642, 49.48816], [0.51646, 49.48836], [0.51653, 49.48835], [0.51655, 49.48843], [0.51657, 49.48851], [0.51639, 49.48852], [0.51642, 49.48864], [0.51647, 49.48863], [0.51666, 49.48952]]]}}, {"type": "Feature", "properties": {"area_ha": 0.006, "dist_km": 2.651, "node": "Saint-Avold", "node_mw": 519, "osm_id": 961278481, "anchor_kind": "demand"}, "geometry": {"type": "Polygon", "coordinates": [[[6.74586, 49.10386], [6.74588, 49.10381], [6.74601, 49.10383], [6.74598, 49.10389], [6.74586, 49.10386]]]}}, {"type": "Feature", "properties": {"area_ha": 9.399, "dist_km": 1.781, "node": "Le Havre Port-Jérôme", "node_mw": 340, "osm_id": 976235346, "anchor_kind": "demand"}, "geometry": {"type": "Polygon", "coordinates": [[[0.5011, 49.48963], [0.50099, 49.48815], [0.50263, 49.48808], [0.50475, 49.48795], [0.50497, 49.48794], [0.50497, 49.488], [0.50669, 49.48787], [0.50854, 49.48762], [0.50868, 49.4876], [0.50887, 49.48757], [0.50918, 49.48895], [0.50754, 49.48918], [0.50506, 49.48945], [0.5026, 49.48959], [0.5011, 49.48963]]]}}, {"type": "Feature", "properties": {"area_ha": 0.005, "dist_km": 1.673, "node": "Saint-Avold", "node_mw": 519, "osm_id": 1203771993, "anchor_kind": "demand"}, "geometry": {"type": "Polygon", "coordinates": [[[6.7233, 49.11229], [6.72337, 49.11229], [6.72337, 49.11222], [6.7233, 49.11221], [6.7233, 49.11229]]]}}, {"type": "Feature", "properties": {"area_ha": 0.313, "dist_km": 0.985, "node": "Saint-Avold", "node_mw": 519, "osm_id": 1203776466, "anchor_kind": "demand"}, "geometry": {"type": "Polygon", "coordinates": [[[6.69837, 49.10531], [6.69913, 49.10538], [6.69915, 49.10474], [6.69876, 49.10467], [6.69837, 49.10531]]]}}, {"type": "Feature", "properties": {"area_ha": 0.005, "dist_km": 0.996, "node": "Saint-Avold", "node_mw": 519, "osm_id": 1203776467, "anchor_kind": "demand"}, "geometry": {"type": "Polygon", "coordinates": [[[6.69884, 49.10529], [6.69891, 49.10529], [6.69892, 49.10524], [6.69889, 49.10523], [6.6989, 49.10517], [6.69886, 49.10517], [6.69884, 49.10529]]]}}, {"type": "Feature", "properties": {"area_ha": 40.247, "dist_km": 0.95, "node": "Le Havre Port-Jérôme", "node_mw": 340, "osm_id": 1303264018, "anchor_kind": "demand"}, "geometry": {"type": "Polygon", "coordinates": [[[0.51179, 49.49656], [0.51634, 49.49532], [0.51918, 49.49464], [0.5189, 49.49341], [0.51909, 49.49336], [0.5192, 49.49335], [0.51914, 49.49299], [0.52138, 49.49273], [0.52134, 49.4925], [0.51953, 49.49272], [0.51945, 49.49236], [0.51871, 49.49241], [0.51842, 49.49103], [0.5188, 49.49097], [0.51866, 49.4904], [0.51827, 49.49045], [0.51821, 49.49014], [0.5182, 49.4901], [0.51565, 49.49031], [0.51504, 49.48804], [0.5148, 49.48807], [0.51484, 49.48837], [0.51333, 49.48873], [0.51331, 49.48861], [0.51068, 49.48915], [0.51037, 49.48929], [0.51179, 49.49656]]]}}, {"type": "Feature", "properties": {"area_ha": 1.877, "dist_km": 1.168, "node": "Le Havre Port-Jérôme", "node_mw": 340, "osm_id": 1303361124, "anchor_kind": "demand"}, "geometry": {"type": "Polygon", "coordinates": [[[0.53818, 49.49913], [0.5387, 49.49901], [0.53911, 49.49892], [0.53935, 49.49886], [0.53946, 49.49884], [0.53978, 49.49877], [0.53987, 49.49894], [0.54062, 49.49878], [0.54011, 49.49776], [0.53929, 49.49795], [0.53902, 49.49801], [0.53777, 49.4983], [0.53818, 49.49913]]]}}, {"type": "Feature", "properties": {"area_ha": 3.924, "dist_km": 1.571, "node": "Le Havre Port-Jérôme", "node_mw": 340, "osm_id": 1341794696, "anchor_kind": "demand"}, "geometry": {"type": "Polygon", "coordinates": [[[0.50734, 49.49208], [0.50965, 49.49174], [0.50917, 49.48962], [0.50702, 49.48996], [0.50734, 49.49208]]]}}, {"type": "Feature", "properties": {"area_ha": 0.009, "dist_km": 1.578, "node": "Saint-Avold", "node_mw": 519, "osm_id": 1350400037, "anchor_kind": "demand"}, "geometry": {"type": "Polygon", "coordinates": [[[6.71976, 49.11271], [6.71988, 49.11267], [6.71983, 49.1126], [6.7197, 49.11264], [6.71976, 49.11271]]]}}, {"type": "Feature", "properties": {"area_ha": 26.307, "dist_km": 2.226, "node": "Saint-Avold", "node_mw": 519, "osm_id": 1408170527, "anchor_kind": "demand"}, "geometry": {"type": "Polygon", "coordinates": [[[6.72318, 49.12121], [6.723, 49.12075], [6.72279, 49.12018], [6.72258, 49.12016], [6.72202, 49.12011], [6.72081, 49.12041], [6.72065, 49.12012], [6.72039, 49.11986], [6.72022, 49.11966], [6.72046, 49.11958], [6.72094, 49.11954], [6.72169, 49.11939], [6.72195, 49.11939], [6.72209, 49.11969], [6.72238, 49.1198], [6.72249, 49.11965], [6.72249, 49.11932], [6.72056, 49.11327], [6.72065, 49.11289], [6.72151, 49.11314], [6.72312, 49.11322], [6.72433, 49.11329], [6.72505, 49.11337], [6.7259, 49.11339], [6.72589, 49.11528], [6.72595, 49.11617], [6.72672, 49.11883], [6.72515, 49.11896], [6.72444, 49.12072], [6.72415, 49.12077], [6.72404, 49.12122], [6.72318, 49.12121]]]}}, {"type": "Feature", "properties": {"area_ha": 1.716, "dist_km": 2.267, "node": "Saint-Avold", "node_mw": 519, "osm_id": 1444550147, "anchor_kind": "demand"}, "geometry": {"type": "Polygon", "coordinates": [[[6.72478, 49.0823], [6.72496, 49.08215], [6.72506, 49.08219], [6.72525, 49.08203], [6.72515, 49.08186], [6.72477, 49.08151], [6.72407, 49.08111], [6.72372, 49.08152], [6.72274, 49.08109], [6.72236, 49.08149], [6.72355, 49.08213], [6.72449, 49.08259], [6.72456, 49.08252], [6.72478, 49.0823]]]}}, {"type": "Feature", "properties": {"area_ha": 1.405, "dist_km": 2.29, "node": "Saint-Avold", "node_mw": 519, "osm_id": 1470106495, "anchor_kind": "demand"}, "geometry": {"type": "Polygon", "coordinates": [[[6.70649, 49.08037], [6.7081, 49.07981], [6.70721, 49.07889], [6.70693, 49.07882], [6.70655, 49.07931], [6.70593, 49.07986], [6.70649, 49.08037]]]}}, {"type": "Feature", "properties": {"area_ha": 0.074, "dist_km": 2.636, "node": "Plan de Campagne", "node_mw": 250, "osm_id": 92752853, "anchor_kind": "demand"}, "geometry": {"type": "Polygon", "coordinates": [[[5.39669, 43.44332], [5.39689, 43.44332], [5.39689, 43.44373], [5.39683, 43.44373], [5.39676, 43.44372], [5.39668, 43.44372], [5.39669, 43.44332]]]}}, {"type": "Feature", "properties": {"area_ha": 2.675, "dist_km": 0.95, "node": "Plan de Campagne", "node_mw": 250, "osm_id": 92755059, "anchor_kind": "demand"}, "geometry": {"type": "Polygon", "coordinates": [[[5.39684, 43.42786], [5.39806, 43.42752], [5.39859, 43.42854], [5.39661, 43.42908], [5.39599, 43.42925], [5.3955, 43.42829], [5.39612, 43.42812], [5.39609, 43.42806], [5.39674, 43.42788], [5.39672, 43.42785], [5.39682, 43.42782], [5.39684, 43.42786]]]}}, {"type": "Feature", "properties": {"area_ha": 0.329, "dist_km": 2.295, "node": "Plan de Campagne", "node_mw": 250, "osm_id": 101034091, "anchor_kind": "demand"}, "geometry": {"type": "Polygon", "coordinates": [[[5.37234, 43.41389], [5.37234, 43.41388], [5.3727, 43.41372], [5.37296, 43.41361], [5.37303, 43.41369], [5.373, 43.41371], [5.3729, 43.41375], [5.37295, 43.4138], [5.37297, 43.41382], [5.37315, 43.41406], [5.37335, 43.41398], [5.37339, 43.41397], [5.37345, 43.41403], [5.37268, 43.41435], [5.37261, 43.41427], [5.37257, 43.41429], [5.37252, 43.41424], [5.37255, 43.41422], [5.37246, 43.41411], [5.3725, 43.41409], [5.37234, 43.41389]]]}}, {"type": "Feature", "properties": {"area_ha": 0.201, "dist_km": 2.688, "node": "Plan de Campagne", "node_mw": 250, "osm_id": 160922273, "anchor_kind": "demand"}, "geometry": {"type": "Polygon", "coordinates": [[[5.42547, 43.43493], [5.42565, 43.43478], [5.42648, 43.43532], [5.4263, 43.43547], [5.42547, 43.43493]]]}}, {"type": "Feature", "properties": {"area_ha": 48.293, "dist_km": 1.171, "node": "Plan de Campagne", "node_mw": 250, "osm_id": 335860223, "anchor_kind": "demand"}, "geometry": {"type": "Polygon", "coordinates": [[[5.37898, 43.42465], [5.37879, 43.42577], [5.3798, 43.42604], [5.38049, 43.42622], [5.38187, 43.42658], [5.38308, 43.42689], [5.38395, 43.42714], [5.38506, 43.42745], [5.38507, 43.42745], [5.38541, 43.42743], [5.38725, 43.42797], [5.38729, 43.42801], [5.38815, 43.42828], [5.3884, 43.42833], [5.3894, 43.42856], [5.38923, 43.42824], [5.38953, 43.42816], [5.38927, 43.42787], [5.38943, 43.42777], [5.38978, 43.42754], [5.38986, 43.42742], [5.38995, 43.4273], [5.38998, 43.42725], [5.39016, 43.42731], [5.3911, 43.42761], [5.39191, 43.42787], [5.39184, 43.42792], [5.3918, 43.42795], [5.39164, 43.428], [5.39159, 43.42802], [5.39151, 43.42807], [5.39142, 43.42813], [5.39089, 43.42892], [5.39138, 43.42906], [5.39178, 43.42921], [5.39228, 43.42937], [5.39288, 43.42951], [5.3937, 43.42964], [5.39467, 43.42974], [5.39553, 43.42975], [5.39643, 43.4297], [5.39722, 43.42958], [5.39797, 43.42942], [5.39904, 43.42909], [5.39907, 43.42683], [5.39866, 43.42655], [5.39808, 43.42644], [5.39776, 43.42645], [5.39737, 43.4264], [5.39658, 43.42622], [5.39602, 43.42612], [5.39543, 43.42604], [5.39518, 43.42602], [5.39429, 43.42595], [5.39396, 43.42596], [5.39355, 43.426], [5.39315, 43.42598], [5.39284, 43.42598], [5.39275, 43.42604], [5.39274, 43.42614], [5.39259, 43.42649], [5.3925, 43.42665], [5.39247, 43.42672], [5.39138, 43.4264], [5.39192, 43.42534], [5.39194, 43.42518], [5.39144, 43.42503], [5.39097, 43.42494], [5.39047, 43.4248], [5.38985, 43.42459], [5.38943, 43.42445], [5.38854, 43.42412], [5.38762, 43.42367], [5.3869, 43.42329], [5.38644, 43.42307], [5.38601, 43.42289], [5.38522, 43.42255], [5.38508, 43.42251], [5.38495, 43.42282], [5.38499, 43.42286], [5.38488, 43.42297], [5.38548, 43.42344], [5.38588, 43.42387], [5.38718, 43.42519], [5.38805, 43.4255], [5.38802, 43.42588], [5.388, 43.42612], [5.38763, 43.42628], [5.38736, 43.42623], [5.38686, 43.4263], [5.38642, 43.42621], [5.38642, 43.4261], [5.38637, 43.42606], [5.38569, 43.42591], [5.38547, 43.42589], [5.38499, 43.42591], [5.38468, 43.42588], [5.3845, 43.42589], [5.38442, 43.42592], [5.3839, 43.4258], [5.38344, 43.42578], [5.38335, 43.42576], [5.38284, 43.4256], [5.38251, 43.42545], [5.38235, 43.42538], [5.38226, 43.42574], [5.38227, 43.42578], [5.38218, 43.42598], [5.38201, 43.42596], [5.38201, 43.42597], [5.38172, 43.42593], [5.38194, 43.42512], [5.38047, 43.42485], [5.37953, 43.42473], [5.37952, 43.42476], [5.37945, 43.42476], [5.37939, 43.42475], [5.37939, 43.42471], [5.37898, 43.42465]]]}}, {"type": "Feature", "properties": {"area_ha": 3.427, "dist_km": 2.232, "node": "Plan de Campagne", "node_mw": 250, "osm_id": 335860225, "anchor_kind": "demand"}, "geometry": {"type": "Polygon", "coordinates": [[[5.39742, 43.4421], [5.39739, 43.44154], [5.39731, 43.44154], [5.3973, 43.44119], [5.39738, 43.44118], [5.39735, 43.44082], [5.39738, 43.44079], [5.39739, 43.44046], [5.39833, 43.44047], [5.39832, 43.43978], [5.39757, 43.43979], [5.39737, 43.43979], [5.39732, 43.43786], [5.3972, 43.43777], [5.39686, 43.43789], [5.39668, 43.43794], [5.39666, 43.43803], [5.3966, 43.43803], [5.39664, 43.43881], [5.39661, 43.43969], [5.39662, 43.43978], [5.39665, 43.44025], [5.39651, 43.44169], [5.39648, 43.44198], [5.39742, 43.4421]]]}}, {"type": "Feature", "properties": {"area_ha": 6.933, "dist_km": 1.391, "node": "Plan de Campagne", "node_mw": 250, "osm_id": 337479486, "anchor_kind": "demand"}, "geometry": {"type": "Polygon", "coordinates": [[[5.41094, 43.43229], [5.41188, 43.43239], [5.41209, 43.43193], [5.41353, 43.43185], [5.41369, 43.43095], [5.40975, 43.42976], [5.40847, 43.42946], [5.408, 43.4294], [5.408, 43.42932], [5.40681, 43.42902], [5.4066, 43.42907], [5.40656, 43.42921], [5.40648, 43.42952], [5.4065, 43.42957], [5.40656, 43.4296], [5.40726, 43.4297], [5.40727, 43.42965], [5.40751, 43.4297], [5.4076, 43.42974], [5.40765, 43.42975], [5.40782, 43.4298], [5.40781, 43.42984], [5.40803, 43.42991], [5.40866, 43.43013], [5.40868, 43.43011], [5.40939, 43.43036], [5.40941, 43.43032], [5.40945, 43.43034], [5.40948, 43.43035], [5.40944, 43.43044], [5.40985, 43.43096], [5.40989, 43.43099], [5.40993, 43.43099], [5.40998, 43.43098], [5.41003, 43.43093], [5.41009, 43.43097], [5.41002, 43.43102], [5.40999, 43.43105], [5.40998, 43.43109], [5.40999, 43.43114], [5.41029, 43.43147], [5.41043, 43.43164], [5.41068, 43.43135], [5.41078, 43.43158], [5.41093, 43.43166], [5.4111, 43.43171], [5.41118, 43.43193], [5.41094, 43.43229]]]}}, {"type": "Feature", "properties": {"area_ha": 16.212, "dist_km": 3.05, "node": "Plan de Campagne", "node_mw": 250, "osm_id": 547697526, "anchor_kind": "demand"}, "geometry": {"type": "Polygon", "coordinates": [[[5.37416, 43.39651], [5.37349, 43.39627], [5.37315, 43.39624], [5.37302, 43.39632], [5.37294, 43.39662], [5.373, 43.3972], [5.37296, 43.39746], [5.37258, 43.39783], [5.37221, 43.39831], [5.37245, 43.39846], [5.3731, 43.39868], [5.37367, 43.39906], [5.37395, 43.39917], [5.37426, 43.39926], [5.37436, 43.39958], [5.37596, 43.40004], [5.37643, 43.40044], [5.37658, 43.40092], [5.37639, 43.40098], [5.37645, 43.40118], [5.37685, 43.40123], [5.37773, 43.40112], [5.37796, 43.40117], [5.37852, 43.40114], [5.37909, 43.40117], [5.37904, 43.40066], [5.3788, 43.40057], [5.37868, 43.40024], [5.37891, 43.40018], [5.3789, 43.39935], [5.3784, 43.39894], [5.37853, 43.39844], [5.3781, 43.39798], [5.37723, 43.39765], [5.37632, 43.39745], [5.37543, 43.39697], [5.37453, 43.39656], [5.37416, 43.39651]]]}}, {"type": "Feature", "properties": {"area_ha": 1.606, "dist_km": 2.807, "node": "Plan de Campagne", "node_mw": 250, "osm_id": 548307610, "anchor_kind": "demand"}, "geometry": {"type": "Polygon", "coordinates": [[[5.36634, 43.41277], [5.3665, 43.41295], [5.3666, 43.41301], [5.36687, 43.41307], [5.367, 43.41309], [5.36722, 43.41311], [5.36754, 43.41315], [5.36778, 43.41258], [5.36774, 43.41258], [5.36761, 43.41259], [5.36743, 43.41232], [5.3673, 43.4122], [5.36679, 43.41149], [5.36649, 43.41131], [5.36644, 43.41136], [5.36611, 43.41141], [5.36617, 43.4118], [5.36628, 43.41256], [5.36629, 43.41264], [5.36633, 43.41274], [5.36634, 43.41277]]]}}, {"type": "Feature", "properties": {"area_ha": 1.378, "dist_km": 2.297, "node": "Plan de Campagne", "node_mw": 250, "osm_id": 548307644, "anchor_kind": "demand"}, "geometry": {"type": "Polygon", "coordinates": [[[5.37258, 43.41455], [5.37367, 43.41412], [5.37356, 43.41407], [5.37354, 43.41403], [5.37352, 43.41399], [5.37342, 43.41387], [5.37333, 43.41373], [5.37327, 43.41348], [5.37323, 43.41342], [5.37319, 43.4134], [5.37313, 43.4134], [5.37309, 43.41335], [5.37305, 43.4133], [5.37297, 43.41332], [5.37257, 43.41335], [5.37223, 43.41337], [5.37173, 43.41341], [5.37199, 43.41385], [5.37226, 43.41418], [5.372, 43.41427], [5.37231, 43.41465], [5.37258, 43.41455]]]}}, {"type": "Feature", "properties": {"area_ha": 0.095, "dist_km": 1.619, "node": "Plan de Campagne", "node_mw": 250, "osm_id": 661149692, "anchor_kind": "demand"}, "geometry": {"type": "Polygon", "coordinates": [[[5.41195, 43.43132], [5.41221, 43.4314], [5.41219, 43.43143], [5.41254, 43.43154], [5.41247, 43.43166], [5.4125, 43.43167], [5.41247, 43.43172], [5.41209, 43.4316], [5.41215, 43.43151], [5.41189, 43.43142], [5.41195, 43.43132]]]}}, {"type": "Feature", "properties": {"area_ha": 4.46, "dist_km": 2.038, "node": "Plan de Campagne", "node_mw": 250, "osm_id": 662048366, "anchor_kind": "demand"}, "geometry": {"type": "Polygon", "coordinates": [[[5.40435, 43.43981], [5.40302, 43.43984], [5.40296, 43.43965], [5.40305, 43.43965], [5.40291, 43.439], [5.40248, 43.43905], [5.40262, 43.43773], [5.40284, 43.43774], [5.40334, 43.43751], [5.40335, 43.43736], [5.4031, 43.43735], [5.40311, 43.43711], [5.40299, 43.4368], [5.40343, 43.43671], [5.40361, 43.43637], [5.40406, 43.43654], [5.40424, 43.43684], [5.40418, 43.43686], [5.40423, 43.43695], [5.4043, 43.43693], [5.40462, 43.43729], [5.40458, 43.43731], [5.40486, 43.43779], [5.40484, 43.43782], [5.40436, 43.43792], [5.40441, 43.43807], [5.40433, 43.43811], [5.40427, 43.43816], [5.40416, 43.43816], [5.40416, 43.43821], [5.40416, 43.43824], [5.40423, 43.43824], [5.40423, 43.43877], [5.40417, 43.43882], [5.40402, 43.43884], [5.40413, 43.43895], [5.40423, 43.43905], [5.40433, 43.43904], [5.40442, 43.43904], [5.40443, 43.43922], [5.40441, 43.43957], [5.40435, 43.43981]]]}}, {"type": "Feature", "properties": {"area_ha": 2.211, "dist_km": 2.468, "node": "Plan de Campagne", "node_mw": 250, "osm_id": 662836351, "anchor_kind": "demand"}, "geometry": {"type": "Polygon", "coordinates": [[[5.42114, 43.43544], [5.42115, 43.4349], [5.42217, 43.43471], [5.4222, 43.43402], [5.42361, 43.43461], [5.4232, 43.43505], [5.42295, 43.43519], [5.42221, 43.43589], [5.42176, 43.43636], [5.42161, 43.43631], [5.42162, 43.4359], [5.42163, 43.43546], [5.42114, 43.43544]]]}}, {"type": "Feature", "properties": {"area_ha": 21.428, "dist_km": 1.013, "node": "Plan de Campagne", "node_mw": 250, "osm_id": 662997158, "anchor_kind": "demand"}, "geometry": {"type": "Polygon", "coordinates": [[[5.38946, 43.4194], [5.3896, 43.41901], [5.38901, 43.41889], [5.38913, 43.41856], [5.38814, 43.41833], [5.38798, 43.41841], [5.38778, 43.41838], [5.38757, 43.41828], [5.38696, 43.41719], [5.3871, 43.4169], [5.38706, 43.41649], [5.38665, 43.41614], [5.38648, 43.41587], [5.38565, 43.4151], [5.38504, 43.41484], [5.3845, 43.41575], [5.3842, 43.41699], [5.38392, 43.41795], [5.38477, 43.41892], [5.38493, 43.41949], [5.38417, 43.42183], [5.38421, 43.42186], [5.38587, 43.42217], [5.38608, 43.42223], [5.3863, 43.42182], [5.38715, 43.42166], [5.38769, 43.42038], [5.38851, 43.4205], [5.3888, 43.42044], [5.38926, 43.42051], [5.38946, 43.42086], [5.38953, 43.42085], [5.39008, 43.42077], [5.39004, 43.42025], [5.39062, 43.42018], [5.39073, 43.42006], [5.39082, 43.42003], [5.39035, 43.41941], [5.38946, 43.4194]]]}}, {"type": "Feature", "properties": {"area_ha": 4.801, "dist_km": 2.669, "node": "Plan de Campagne", "node_mw": 250, "osm_id": 664789515, "anchor_kind": "demand"}, "geometry": {"type": "Polygon", "coordinates": [[[5.39744, 43.44324], [5.39643, 43.44317], [5.39637, 43.44421], [5.39715, 43.44426], [5.39709, 43.44482], [5.39694, 43.44519], [5.39698, 43.44521], [5.39728, 43.44526], [5.39743, 43.44474], [5.39743, 43.44451], [5.39767, 43.4445], [5.39948, 43.44484], [5.39989, 43.44373], [5.40049, 43.44379], [5.40064, 43.44338], [5.40012, 43.44305], [5.39889, 43.44309], [5.39837, 43.44304], [5.39829, 43.44328], [5.39786, 43.44329], [5.39786, 43.44332], [5.39745, 43.44333], [5.39744, 43.44324]]]}}, {"type": "Feature", "properties": {"area_ha": 0.539, "dist_km": 1.848, "node": "Plan de Campagne", "node_mw": 250, "osm_id": 665584626, "anchor_kind": "demand"}, "geometry": {"type": "Polygon", "coordinates": [[[5.3781, 43.42554], [5.37846, 43.42461], [5.37824, 43.42458], [5.37822, 43.4246], [5.37817, 43.42459], [5.37813, 43.42458], [5.37812, 43.42456], [5.37778, 43.42451], [5.3775, 43.42529], [5.3781, 43.42554]]]}}, {"type": "Feature", "properties": {"area_ha": 5.964, "dist_km": 0.736, "node": "Plan de Campagne", "node_mw": 250, "osm_id": 665787961, "anchor_kind": "demand"}, "geometry": {"type": "Polygon", "coordinates": [[[5.39082, 43.42003], [5.39073, 43.42006], [5.39062, 43.42018], [5.39004, 43.42025], [5.39008, 43.42077], [5.38953, 43.42085], [5.38966, 43.42183], [5.38971, 43.42201], [5.38979, 43.42212], [5.3899, 43.4222], [5.39002, 43.42227], [5.39018, 43.42232], [5.39039, 43.42236], [5.39069, 43.42237], [5.39173, 43.42247], [5.3919, 43.42251], [5.3921, 43.4226], [5.39225, 43.42274], [5.39248, 43.42175], [5.39253, 43.42132], [5.39277, 43.42045], [5.39288, 43.42008], [5.39283, 43.41998], [5.39245, 43.41999], [5.39082, 43.42003]]]}}, {"type": "Feature", "properties": {"area_ha": 3.355, "dist_km": 0.903, "node": "Plan de Campagne", "node_mw": 250, "osm_id": 665787964, "anchor_kind": "demand"}, "geometry": {"type": "Polygon", "coordinates": [[[5.38718, 43.42264], [5.38757, 43.42282], [5.38765, 43.42282], [5.39016, 43.42411], [5.39029, 43.42416], [5.39101, 43.42436], [5.39107, 43.42437], [5.39141, 43.42393], [5.3907, 43.42366], [5.39073, 43.42362], [5.39122, 43.42293], [5.3913, 43.42282], [5.39025, 43.42273], [5.38984, 43.42275], [5.3893, 43.42248], [5.38885, 43.42258], [5.38735, 43.42245], [5.38718, 43.42264]]]}}, {"type": "Feature", "properties": {"area_ha": 1.083, "dist_km": 0.764, "node": "Plan de Campagne", "node_mw": 250, "osm_id": 665787965, "anchor_kind": "demand"}, "geometry": {"type": "Polygon", "coordinates": [[[5.39233, 43.42288], [5.39123, 43.42442], [5.3916, 43.42453], [5.39163, 43.42448], [5.39215, 43.42467], [5.39222, 43.42455], [5.39236, 43.42417], [5.39242, 43.42398], [5.3925, 43.42378], [5.39261, 43.42305], [5.3926, 43.42298], [5.39253, 43.42294], [5.39233, 43.42288]]]}}, {"type": "Feature", "properties": {"area_ha": 3.142, "dist_km": 0.719, "node": "Plan de Campagne", "node_mw": 250, "osm_id": 665787968, "anchor_kind": "demand"}, "geometry": {"type": "Polygon", "coordinates": [[[5.39461, 43.42388], [5.39399, 43.42384], [5.39258, 43.42375], [5.39225, 43.4247], [5.3922, 43.42482], [5.39245, 43.4249], [5.39272, 43.42495], [5.39284, 43.42495], [5.39284, 43.42499], [5.39284, 43.42501], [5.39309, 43.42503], [5.39503, 43.42529], [5.39519, 43.42414], [5.3952, 43.42408], [5.39521, 43.42403], [5.39506, 43.42402], [5.39461, 43.42388]]]}}, {"type": "Feature", "properties": {"area_ha": 0.74, "dist_km": 2.176, "node": "Plan de Campagne", "node_mw": 250, "osm_id": 671103939, "anchor_kind": "demand"}, "geometry": {"type": "Polygon", "coordinates": [[[5.39063, 43.43896], [5.39141, 43.43903], [5.39143, 43.43892], [5.39172, 43.43856], [5.39163, 43.43831], [5.39169, 43.43792], [5.391, 43.4379], [5.39089, 43.43855], [5.39063, 43.43896]]]}}, {"type": "Feature", "properties": {"area_ha": 1.113, "dist_km": 2.294, "node": "Plan de Campagne", "node_mw": 250, "osm_id": 671103940, "anchor_kind": "demand"}, "geometry": {"type": "Polygon", "coordinates": [[[5.39259, 43.44045], [5.39277, 43.44059], [5.39374, 43.44057], [5.39354, 43.44], [5.39293, 43.4391], [5.3924, 43.4392], [5.3926, 43.43999], [5.39259, 43.44045]]]}}, {"type": "Feature", "properties": {"area_ha": 0.796, "dist_km": 2.395, "node": "Plan de Campagne", "node_mw": 250, "osm_id": 677102991, "anchor_kind": "demand"}, "geometry": {"type": "Polygon", "coordinates": [[[5.37113, 43.42673], [5.37109, 43.42662], [5.37109, 43.4266], [5.37113, 43.42658], [5.37128, 43.4262], [5.37134, 43.42605], [5.37135, 43.426], [5.37139, 43.42592], [5.37248, 43.42605], [5.37235, 43.42653], [5.3723, 43.42654], [5.3723, 43.42655], [5.37223, 43.4266], [5.37209, 43.42678], [5.37113, 43.42673]]]}}, {"type": "Feature", "properties": {"area_ha": 0.493, "dist_km": 2.66, "node": "Plan de Campagne", "node_mw": 250, "osm_id": 692858774, "anchor_kind": "demand"}, "geometry": {"type": "Polygon", "coordinates": [[[5.42647, 43.43566], [5.42675, 43.43543], [5.42653, 43.43528], [5.42648, 43.43532], [5.42545, 43.43464], [5.42528, 43.43465], [5.42514, 43.43466], [5.4251, 43.43464], [5.42499, 43.43458], [5.4249, 43.43467], [5.42647, 43.43566]]]}}, {"type": "Feature", "properties": {"area_ha": 1.897, "dist_km": 2.365, "node": "Plan de Campagne", "node_mw": 250, "osm_id": 694006852, "anchor_kind": "demand"}, "geometry": {"type": "Polygon", "coordinates": [[[5.36964, 43.42047], [5.36985, 43.41986], [5.37013, 43.41949], [5.37102, 43.41953], [5.37129, 43.41953], [5.37212, 43.41959], [5.3716, 43.42042], [5.37115, 43.42052], [5.37074, 43.42061], [5.37033, 43.42068], [5.37007, 43.42065], [5.36964, 43.42047]]]}}, {"type": "Feature", "properties": {"area_ha": 2.964, "dist_km": 2.938, "node": "Plan de Campagne", "node_mw": 250, "osm_id": 700999596, "anchor_kind": "demand"}, "geometry": {"type": "Polygon", "coordinates": [[[5.40305, 43.44672], [5.40345, 43.44701], [5.40443, 43.44724], [5.40472, 43.44692], [5.40511, 43.4467], [5.40561, 43.44639], [5.40622, 43.44573], [5.40623, 43.44539], [5.40607, 43.44531], [5.40529, 43.44532], [5.40467, 43.44551], [5.40391, 43.44594], [5.40305, 43.44672]]]}}, {"type": "Feature", "properties": {"area_ha": 0.123, "dist_km": 1.541, "node": "Plan de Campagne", "node_mw": 250, "osm_id": 1030428728, "anchor_kind": "demand"}, "geometry": {"type": "Polygon", "coordinates": [[[5.38089, 43.42024], [5.38123, 43.42062], [5.38098, 43.42074], [5.38064, 43.42035], [5.38089, 43.42024]]]}}], "properties": {"source": "OpenStreetMap via Overpass (ODbL) — landuse=industrial / building~industrial|warehouse|factory within 3.0 km of a FR ≥20 MW demand zone (RTE ORREM HTB)", "note": "Candidate sites ONLY — target-then-verify. A building's connected power is not publicly screenable (CUPS/DSO enquiry or equivalent only). area_ha uses a simple planar approximation, indicative only."}}